{"features":[{"type":"Feature","geometry":{"type":"Polygon","coordinates":[[[-57.775461,-36.437637],[-57.986757,-36.277828],[-58.189421,-36.452361],[-58.101463,-36.521294],[-58.226176,-36.627666],[-58.114422,-36.728124],[-58.286543,-36.88103],[-58.019866,-37.075971],[-58.010671,-36.95872],[-57.70711,-36.76301],[-57.776365,-36.634535],[-57.848529,-36.555173],[-57.775461,-36.437637]]]},"properties":{"id":"06308","nombre":"General Guido","nombre_completo":"Partido de General Guido","provincia":{"id":"06","nombre":"Buenos Aires","interseccion":0},"fuente":"IGN","categoria":"Partido","centroide":{"lon":-57.995736595,"lat":-36.666034542}}},{"type":"Feature","geometry":{"type":"Polygon","coordinates":[[[-57.08975,-36.829523],[-57.175823,-36.784425],[-57.304915,-37.003893],[-57.493385,-37.017144],[-57.486938,-37.104952],[-57.674815,-37.202944],[-57.21112,-37.533013],[-56.99197,-37.237095],[-56.819485,-37.025201],[-56.946978,-36.995091],[-57.08975,-36.829523]]]},"properties":{"id":"06315","nombre":"General Juan Madariaga","nombre_completo":"Partido de General Juan Madariaga","provincia":{"id":"06","nombre":"Buenos Aires","interseccion":0},"fuente":"IGN","categoria":"Partido","centroide":{"lon":-57.230660595,"lat":-37.153515719}}},{"type":"Feature","geometry":{"type":"Polygon","coordinates":[[[-62.049601,-37.971499],[-62.157986,-37.966556],[-62.346075,-38.136294],[-62.489683,-38.008184],[-62.575304,-38.075172],[-62.734431,-37.948674],[-62.814394,-38.010744],[-62.654714,-38.139112],[-62.735947,-38.202478],[-62.654991,-38.267006],[-62.899669,-38.456661],[-62.737221,-38.585843],[-62.648968,-38.516606],[-62.614458,-38.591618],[-62.387813,-38.408546],[-62.239765,-38.360879],[-62.220692,-38.43341],[-62.196342,-38.452023],[-62.08465,-38.362737],[-61.781602,-38.459945],[-61.740866,-38.408559],[-61.769883,-38.196911],[-61.792692,-38.137492],[-61.799747,-38.109579],[-61.930716,-38.008459],[-62.049601,-37.971499]]]},"properties":{"id":"06819","nombre":"Tornquist","nombre_completo":"Partido de Tornquist","provincia":{"id":"06","nombre":"Buenos Aires","interseccion":0},"fuente":"IGN","categoria":"Partido","centroide":{"lon":-62.290565998,"lat":-38.257642163}}},{"type":"Feature","geometry":{"type":"Polygon","coordinates":[[[-60.74377,-38.016051],[-61.026523,-37.802441],[-61.178034,-37.680843],[-61.682948,-38.0742],[-61.767389,-38.17245],[-61.769883,-38.196911],[-61.740866,-38.408559],[-61.778637,-38.579577],[-61.754178,-38.615251],[-61.728495,-38.657088],[-61.188565,-38.290579],[-61.077814,-38.293347],[-60.836122,-38.403817],[-60.740629,-38.330723],[-60.746873,-38.229951],[-60.718722,-38.224226],[-60.729234,-38.130242],[-60.676254,-38.093133],[-60.759493,-38.028543],[-60.74377,-38.016051]]]},"properties":{"id":"06196","nombre":"Coronel Pringles","nombre_completo":"Partido de Coronel Pringles","provincia":{"id":"06","nombre":"Buenos Aires","interseccion":0},"fuente":"IGN","categoria":"Partido","centroide":{"lon":-61.264417453,"lat":-38.147917269}}},{"type":"Feature","geometry":{"type":"MultiPolygon","coordinates":[[[[-62.648968,-38.516606],[-62.737337,-38.585753],[-62.899669,-38.456661],[-63.38424,-38.829224],[-63.383269,-39.328492],[-63.013383,-39.503276],[-62.69157,-39.53479],[-62.616835,-39.548087],[-62.375086,-39.764014],[-62.370786,-39.775662],[-62.166528,-39.830179],[-62.0455,-39.447421],[-62.288497,-39.298638],[-62.010943,-39.35781],[-62.316916,-39.266054],[-62.237414,-39.251589],[-62.342234,-39.162954],[-62.354917,-38.75567],[-62.472886,-38.663293],[-62.607112,-38.616323],[-62.648968,-38.516606]]],[[[-61.998985,-39.090736],[-62.056797,-39.157665],[-61.86982,-39.244331],[-61.884796,-39.096584],[-61.909294,-39.162647],[-61.998985,-39.090736]]]]},"properties":{"id":"06875","nombre":"Villarino","nombre_completo":"Partido de Villarino","provincia":{"id":"06","nombre":"Buenos Aires","interseccion":0},"fuente":"IGN","categoria":"Partido","centroide":{"lon":-62.724598955,"lat":-39.128565233}}},{"type":"Feature","geometry":{"type":"Polygon","coordinates":[[[-58.375089,-34.580539],[-58.389832,-34.57822],[-58.386831,-34.599311],[-58.392898,-34.599655],[-58.39032,-34.634142],[-58.379012,-34.629351],[-58.370931,-34.626665],[-58.355966,-34.617656],[-58.373872,-34.578714],[-58.375089,-34.580539]]]},"properties":{"id":"02007","nombre":"Comuna 1","nombre_completo":"Comuna 1","provincia":{"id":"02","nombre":"Ciudad Autónoma de Buenos Aires","interseccion":0},"fuente":"IGN","categoria":"Comuna","centroide":{"lon":-58.371511742,"lat":-34.606443542}}},{"type":"Feature","geometry":{"type":"Polygon","coordinates":[[[-58.42383,-34.66228],[-58.355966,-34.617656],[-58.370931,-34.626665],[-58.379012,-34.629351],[-58.39032,-34.634142],[-58.391137,-34.627271],[-58.411746,-34.630373],[-58.411227,-34.638117],[-58.43231,-34.641759],[-58.430395,-34.649891],[-58.434399,-34.65313],[-58.42383,-34.66228]]]},"properties":{"id":"02028","nombre":"Comuna 4","nombre_completo":"Comuna 4","provincia":{"id":"02","nombre":"Ciudad Autónoma de Buenos Aires","interseccion":0},"fuente":"IGN","categoria":"Comuna","centroide":{"lon":-58.387561403,"lat":-34.642112895}}},{"type":"Feature","geometry":{"type":"MultiPolygon","coordinates":[[[[-58.344989,-34.038397],[-58.463196,-34.001892],[-58.60717,-34.037871],[-58.6753,-34.025467],[-58.80475,-34.087515],[-58.712152,-34.248902],[-58.459577,-34.324787],[-58.424319,-34.281547],[-58.389402,-34.262592],[-58.392546,-34.233562],[-58.354147,-34.216467],[-58.344989,-34.038397]]],[[[-58.600303,-34.490354],[-58.557947,-34.424092],[-58.595171,-34.448343],[-58.600303,-34.490354]]]]},"properties":{"id":"06749","nombre":"San Fernando","nombre_completo":"Partido de San Fernando","provincia":{"id":"06","nombre":"Buenos Aires","interseccion":0},"fuente":"IGN","categoria":"Partido","centroide":{"lon":-58.534581657,"lat":-34.155836112}}},{"type":"Feature","geometry":{"type":"Polygon","coordinates":[[[-58.557947,-34.424092],[-58.489199,-34.44407],[-58.44139,-34.386659],[-58.436937,-34.300883],[-58.472022,-34.32351],[-58.649515,-34.266598],[-58.679814,-34.345687],[-58.720619,-34.36329],[-58.734634,-34.40246],[-58.606343,-34.534542],[-58.595171,-34.448343],[-58.557947,-34.424092]]]},"properties":{"id":"06805","nombre":"Tigre","nombre_completo":"Partido de Tigre","provincia":{"id":"06","nombre":"Buenos Aires","interseccion":0},"fuente":"IGN","categoria":"Partido","centroide":{"lon":-58.588173873,"lat":-34.382019908}}},{"type":"Feature","geometry":{"type":"Polygon","coordinates":[[[-58.43095,-34.551138],[-58.476084,-34.538431],[-58.468046,-34.572928],[-58.46019,-34.578314],[-58.439904,-34.578566],[-58.441128,-34.562153],[-58.43095,-34.551138]]]},"properties":{"id":"02091","nombre":"Comuna 13","nombre_completo":"Comuna 13","provincia":{"id":"02","nombre":"Ciudad Autónoma de Buenos Aires","interseccion":0},"fuente":"IGN","categoria":"Comuna","centroide":{"lon":-58.454002962,"lat":-34.554126296}}},{"type":"Feature","geometry":{"type":"Polygon","coordinates":[[[-60.966443,-34.345827],[-61.041553,-34.283292],[-61.070098,-34.307214],[-61.098149,-34.284531],[-61.168395,-34.359374],[-61.355509,-34.473947],[-61.275199,-34.541214],[-61.338484,-34.592169],[-61.204736,-34.702486],[-61.222551,-34.717368],[-61.151165,-34.777206],[-61.048176,-34.692906],[-60.903991,-34.810841],[-60.849248,-34.763019],[-60.815683,-34.789652],[-60.764489,-34.741034],[-60.795509,-34.717472],[-60.741446,-34.649115],[-60.646701,-34.53305],[-60.902675,-34.326078],[-60.966443,-34.345827]]]},"properties":{"id":"06413","nombre":"Junín","nombre_completo":"Partido de Junín","provincia":{"id":"06","nombre":"Buenos Aires","interseccion":0},"fuente":"IGN","categoria":"Partido","centroide":{"lon":-61.005250128,"lat":-34.546475132}}},{"type":"Feature","geometry":{"type":"Polygon","coordinates":[[[-59.967868,-34.691848],[-60.006599,-34.641007],[-60.172989,-34.770245],[-60.304147,-34.881095],[-60.132718,-35.082419],[-59.905571,-35.114872],[-59.835731,-35.157783],[-59.822241,-35.176824],[-59.605175,-34.997713],[-59.798118,-34.82566],[-59.944678,-34.671979],[-59.967868,-34.691848]]]},"properties":{"id":"06224","nombre":"Chivilcoy","nombre_completo":"Partido de Chivilcoy","provincia":{"id":"06","nombre":"Buenos Aires","interseccion":0},"fuente":"IGN","categoria":"Partido","centroide":{"lon":-59.958419488,"lat":-34.915487328}}},{"type":"Feature","geometry":{"type":"Polygon","coordinates":[[[-60.304147,-34.881095],[-60.239549,-34.826527],[-60.281463,-34.79361],[-60.32251,-34.761526],[-60.460279,-34.862375],[-60.453038,-34.930413],[-60.474599,-34.939912],[-60.434912,-35.016392],[-60.353836,-35.193833],[-60.235044,-35.295857],[-60.021089,-35.108035],[-60.132718,-35.082419],[-60.304147,-34.881095]]]},"properties":{"id":"06021","nombre":"Alberti","nombre_completo":"Partido de Alberti","provincia":{"id":"06","nombre":"Buenos Aires","interseccion":0},"fuente":"IGN","categoria":"Partido","centroide":{"lon":-60.281976592,"lat":-35.036968511}}},{"type":"Feature","geometry":{"type":"Polygon","coordinates":[[[-60.685321,-34.657039],[-60.795509,-34.717472],[-60.764489,-34.741034],[-60.815683,-34.789652],[-60.723956,-34.861231],[-60.847692,-34.968081],[-60.754227,-35.041402],[-60.872663,-35.14367],[-60.528049,-35.410299],[-60.315787,-35.223135],[-60.353836,-35.193833],[-60.434912,-35.016392],[-60.474599,-34.939912],[-60.453038,-34.930413],[-60.494684,-34.838491],[-60.685321,-34.657039]]]},"properties":{"id":"06112","nombre":"Bragado","nombre_completo":"Partido de Bragado","provincia":{"id":"06","nombre":"Buenos Aires","interseccion":0},"fuente":"IGN","categoria":"Partido","centroide":{"lon":-60.604046653,"lat":-35.061412271}}},{"type":"Feature","geometry":{"type":"Polygon","coordinates":[[[-59.03175,-34.763825],[-59.089806,-34.71714],[-59.218728,-34.852572],[-58.992581,-35.021429],[-59.014807,-35.041293],[-58.934096,-35.103508],[-58.777483,-34.964965],[-58.859086,-34.904052],[-58.84527,-34.891708],[-58.936187,-34.817828],[-58.951498,-34.831176],[-59.03175,-34.763825]]]},"properties":{"id":"06329","nombre":"General Las Heras","nombre_completo":"Partido de General Las Heras","provincia":{"id":"06","nombre":"Buenos Aires","interseccion":0},"fuente":"IGN","categoria":"Partido","centroide":{"lon":-58.995446621,"lat":-34.909424378}}},{"type":"Feature","geometry":{"type":"Polygon","coordinates":[[[-58.860294,-34.685206],[-58.935344,-34.703731],[-58.998289,-34.762792],[-58.951498,-34.831176],[-58.936187,-34.817828],[-58.84527,-34.891708],[-58.859086,-34.904052],[-58.765341,-34.958997],[-58.694106,-34.912195],[-58.749862,-34.847367],[-58.707051,-34.811268],[-58.860894,-34.701334],[-58.860294,-34.685206]]]},"properties":{"id":"06525","nombre":"Marcos Paz","nombre_completo":"Partido de Marcos Paz","provincia":{"id":"06","nombre":"Buenos Aires","interseccion":0},"fuente":"IGN","categoria":"Partido","centroide":{"lon":-58.847831205,"lat":-34.814002965}}},{"type":"Feature","geometry":{"type":"Polygon","coordinates":[[[-59.905571,-35.114872],[-60.021089,-35.108035],[-60.235044,-35.295857],[-60.323097,-35.22972],[-60.528049,-35.410299],[-60.444882,-35.473321],[-60.867915,-35.840008],[-60.695447,-35.968815],[-60.638071,-35.921069],[-60.531063,-36.000561],[-60.461554,-35.949308],[-60.417136,-35.928244],[-60.116733,-35.664442],[-60.00544,-35.661698],[-60.039969,-35.624195],[-60.010605,-35.597099],[-60.009792,-35.575656],[-60.028733,-35.555252],[-60.004894,-35.528916],[-59.906036,-35.48093],[-59.775005,-35.478474],[-59.768671,-35.451043],[-59.825442,-35.407354],[-59.755477,-35.346744],[-59.506062,-35.289257],[-59.549982,-35.267531],[-59.543009,-35.204349],[-59.663883,-35.210011],[-59.699119,-35.210947],[-59.721389,-35.222676],[-59.774162,-35.173967],[-59.822374,-35.176815],[-59.835731,-35.157783],[-59.905571,-35.114872]]]},"properties":{"id":"06854","nombre":"25 de Mayo","nombre_completo":"Partido de 25 de Mayo","provincia":{"id":"06","nombre":"Buenos Aires","interseccion":0},"fuente":"IGN","categoria":"Partido","centroide":{"lon":-60.230283789,"lat":-35.527208972}}},{"type":"Feature","geometry":{"type":"Polygon","coordinates":[[[-60.444882,-35.473321],[-60.868635,-35.145431],[-60.984631,-35.2466],[-61.062511,-35.186779],[-61.155019,-35.264171],[-61.278178,-35.165851],[-61.531934,-35.378534],[-61.288021,-35.572824],[-61.031898,-35.765554],[-61.101731,-35.824756],[-60.969673,-35.926616],[-60.444882,-35.473321]]]},"properties":{"id":"06588","nombre":"9 de Julio","nombre_completo":"Partido de 9 de Julio","provincia":{"id":"06","nombre":"Buenos Aires","interseccion":0},"fuente":"IGN","categoria":"Partido","centroide":{"lon":-60.975425442,"lat":-35.481227148}}},{"type":"Feature","geometry":{"type":"Polygon","coordinates":[[[-61.724739,-35.537384],[-61.783275,-35.585449],[-61.906309,-35.485611],[-62.098286,-35.591606],[-62.431086,-35.858839],[-62.082437,-36.152301],[-62.178949,-36.271882],[-62.144315,-36.245472],[-62.014961,-36.300641],[-61.974442,-36.333632],[-61.921176,-36.288428],[-61.491487,-36.019098],[-61.436136,-36.039237],[-61.560046,-35.942756],[-61.636117,-35.852744],[-61.502767,-35.745416],[-61.724739,-35.537384]]]},"properties":{"id":"06609","nombre":"Pehuajó","nombre_completo":"Partido de Pehuajó","provincia":{"id":"06","nombre":"Buenos Aires","interseccion":0},"fuente":"IGN","categoria":"Partido","centroide":{"lon":-61.928125734,"lat":-35.883620834}}},{"type":"Feature","geometry":{"type":"Polygon","coordinates":[[[-59.553214,-36.006791],[-59.592439,-36.040529],[-59.718057,-36.105853],[-59.797111,-36.043748],[-59.966942,-36.248596],[-60.090175,-36.16134],[-60.35968,-36.326405],[-60.565185,-36.236201],[-60.699437,-36.135354],[-60.810381,-36.210357],[-60.799079,-36.231555],[-60.860253,-36.322509],[-60.929622,-36.424551],[-60.87544,-36.467829],[-60.649975,-36.342881],[-60.532234,-36.412521],[-60.285566,-36.619947],[-60.161412,-36.719657],[-60.135004,-36.674827],[-60.062826,-36.731805],[-59.918892,-36.614812],[-60.023689,-36.531839],[-59.931181,-36.466614],[-59.727204,-36.288222],[-59.634577,-36.35887],[-59.382453,-36.135384],[-59.553214,-36.006791]]]},"properties":{"id":"06798","nombre":"Tapalqué","nombre_completo":"Partido de Tapalqué","provincia":{"id":"06","nombre":"Buenos Aires","interseccion":0},"fuente":"IGN","categoria":"Partido","centroide":{"lon":-60.131065028,"lat":-36.34714364}}},{"type":"Feature","geometry":{"type":"Polygon","coordinates":[[[-63.282763,-36.607562],[-63.385367,-36.524945],[-63.377659,-37.815182],[-62.813196,-37.373926],[-62.642151,-37.519813],[-62.425401,-37.348682],[-62.647306,-37.123047],[-63.282763,-36.607562]]]},"properties":{"id":"06007","nombre":"Adolfo Alsina","nombre_completo":"Partido de Adolfo Alsina","provincia":{"id":"06","nombre":"Buenos Aires","interseccion":0},"fuente":"IGN","categoria":"Partido","centroide":{"lon":-63.056055153,"lat":-37.196762082}}},{"type":"Feature","geometry":{"type":"Polygon","coordinates":[[[-59.811998,-34.015164],[-60.156379,-33.745477],[-60.231469,-33.869787],[-60.196307,-34.051445],[-60.202878,-34.203902],[-60.039614,-34.268608],[-59.983602,-34.197571],[-59.984788,-34.084642],[-59.811998,-34.015164]]]},"properties":{"id":"06077","nombre":"Arrecifes","nombre_completo":"Partido de Arrecifes","provincia":{"id":"06","nombre":"Buenos Aires","interseccion":0},"fuente":"IGN","categoria":"Partido","centroide":{"lon":-60.062664148,"lat":-34.011811918}}},{"type":"Feature","geometry":{"type":"Polygon","coordinates":[[[-59.754392,-34.013563],[-59.811998,-34.015164],[-59.984788,-34.084642],[-59.983602,-34.197571],[-60.039614,-34.268608],[-59.970569,-34.286546],[-59.895237,-34.236438],[-59.873943,-34.264301],[-59.722274,-34.13107],[-59.707232,-34.09359],[-59.754392,-34.013563]]]},"properties":{"id":"06140","nombre":"Capitán Sarmiento","nombre_completo":"Partido de Capitán Sarmiento","provincia":{"id":"06","nombre":"Buenos Aires","interseccion":0},"fuente":"IGN","categoria":"Partido","centroide":{"lon":-59.854014785,"lat":-34.149844527}}},{"type":"Feature","geometry":{"type":"Polygon","coordinates":[[[-60.196307,-34.051445],[-60.3124,-34.001454],[-60.496387,-34.17646],[-60.46989,-34.199868],[-60.578268,-34.392173],[-60.488998,-34.41514],[-60.211227,-34.45956],[-60.08409,-34.367516],[-60.06503,-34.382654],[-60.004434,-34.328914],[-60.012141,-34.322914],[-59.970773,-34.28642],[-60.202878,-34.203902],[-60.196307,-34.051445]]]},"properties":{"id":"06714","nombre":"Salto","nombre_completo":"Partido de Salto","provincia":{"id":"06","nombre":"Buenos Aires","interseccion":0},"fuente":"IGN","categoria":"Partido","centroide":{"lon":-60.305287869,"lat":-34.271077787}}},{"type":"Feature","geometry":{"type":"Polygon","coordinates":[[[-59.057152,-34.241501],[-59.3666,-34.198921],[-59.298677,-34.26429],[-59.310353,-34.289433],[-59.129594,-34.42061],[-59.097653,-34.464318],[-59.075912,-34.435339],[-58.992981,-34.379286],[-58.980257,-34.350643],[-58.918903,-34.413786],[-58.91853,-34.381908],[-59.057152,-34.241501]]]},"properties":{"id":"06266","nombre":"Exaltación de la Cruz","nombre_completo":"Partido de Exaltación de la Cruz","provincia":{"id":"06","nombre":"Buenos Aires","interseccion":0},"fuente":"IGN","categoria":"Partido","centroide":{"lon":-59.155946132,"lat":-34.295134224}}},{"type":"Feature","geometry":{"type":"Polygon","coordinates":[[[-58.713374,-34.605638],[-58.646591,-34.501384],[-58.720899,-34.518234],[-58.77694,-34.557917],[-58.713374,-34.605638]]]},"properties":{"id":"06760","nombre":"San Miguel","nombre_completo":"Partido de San Miguel","provincia":{"id":"06","nombre":"Buenos Aires","interseccion":0},"fuente":"IGN","categoria":"Partido","centroide":{"lon":-58.691783523,"lat":-34.552134349}}},{"type":"Feature","geometry":{"type":"Polygon","coordinates":[[[-59.298677,-34.26429],[-59.419483,-34.268607],[-59.644583,-34.417529],[-59.767615,-34.452814],[-59.768409,-34.507296],[-59.63243,-34.615017],[-59.523664,-34.596894],[-59.217716,-34.446564],[-59.239323,-34.413704],[-59.310353,-34.289433],[-59.298677,-34.26429]]]},"properties":{"id":"06728","nombre":"San Andrés de Giles","nombre_completo":"Partido de San Andrés de Giles","provincia":{"id":"06","nombre":"Buenos Aires","interseccion":0},"fuente":"IGN","categoria":"Partido","centroide":{"lon":-59.473198591,"lat":-34.437731429}}},{"type":"Feature","geometry":{"type":"Polygon","coordinates":[[[-58.816989,-34.415404],[-58.907739,-34.359949],[-58.921214,-34.371547],[-58.919672,-34.414768],[-58.980257,-34.350643],[-58.992981,-34.379286],[-59.056272,-34.428206],[-58.96189,-34.533741],[-58.92842,-34.516204],[-58.847501,-34.549171],[-58.821687,-34.451956],[-58.784689,-34.476157],[-58.737313,-34.456416],[-58.777666,-34.404272],[-58.816989,-34.415404]]]},"properties":{"id":"06638","nombre":"Pilar","nombre_completo":"Partido de Pilar","provincia":{"id":"06","nombre":"Buenos Aires","interseccion":0},"fuente":"IGN","categoria":"Partido","centroide":{"lon":-58.90333273,"lat":-34.448164005}}},{"type":"Feature","geometry":{"type":"Polygon","coordinates":[[[-59.129594,-34.42061],[-59.239323,-34.413704],[-59.217716,-34.446564],[-59.338525,-34.508444],[-59.262446,-34.620116],[-59.255899,-34.685583],[-59.164978,-34.803469],[-59.091209,-34.719233],[-59.136081,-34.65886],[-59.056377,-34.616464],[-58.954201,-34.543725],[-59.056272,-34.428206],[-59.097653,-34.464318],[-59.129594,-34.42061]]]},"properties":{"id":"06497","nombre":"Luján","nombre_completo":"Partido de Luján","provincia":{"id":"06","nombre":"Buenos Aires","interseccion":0},"fuente":"IGN","categoria":"Partido","centroide":{"lon":-59.15845644,"lat":-34.56732242}}},{"type":"Feature","geometry":{"type":"Polygon","coordinates":[[[-60.488998,-34.41514],[-60.559846,-34.406436],[-60.677205,-34.509355],[-60.646701,-34.53305],[-60.741446,-34.649115],[-60.685321,-34.657039],[-60.494684,-34.838491],[-60.460279,-34.862375],[-60.32251,-34.761526],[-60.243552,-34.829956],[-60.172989,-34.770245],[-60.006599,-34.641007],[-59.967868,-34.691848],[-59.884567,-34.61943],[-60.083631,-34.469779],[-60.211227,-34.45956],[-60.488998,-34.41514]]]},"properties":{"id":"06210","nombre":"Chacabuco","nombre_completo":"Partido de Chacabuco","provincia":{"id":"06","nombre":"Buenos Aires","interseccion":0},"fuente":"IGN","categoria":"Partido","centroide":{"lon":-60.354308113,"lat":-34.618200295}}},{"type":"Feature","geometry":{"type":"Polygon","coordinates":[[[-58.213064,-36.615489],[-58.43724,-36.452101],[-58.720954,-36.700227],[-58.666852,-36.742926],[-58.866825,-36.838371],[-58.936877,-36.936046],[-59.021495,-36.960095],[-59.040746,-37.026078],[-59.09013,-37.062779],[-58.610899,-37.411263],[-58.577112,-37.383977],[-58.426401,-37.501187],[-58.354633,-37.439849],[-58.282658,-37.492092],[-58.16358,-37.38824],[-58.09451,-37.437404],[-57.768972,-37.135971],[-57.944419,-37.007576],[-58.019866,-37.075971],[-58.286543,-36.88103],[-58.114422,-36.728124],[-58.226176,-36.627666],[-58.213064,-36.615489]]]},"properties":{"id":"06042","nombre":"Ayacucho","nombre_completo":"Partido de Ayacucho","provincia":{"id":"06","nombre":"Buenos Aires","interseccion":0},"fuente":"IGN","categoria":"Partido","centroide":{"lon":-58.442556524,"lat":-37.035430912}}},{"type":"Feature","geometry":{"type":"Polygon","coordinates":[[[-62.473292,-36.457208],[-62.970025,-36.863033],[-62.647306,-37.123047],[-62.425401,-37.348682],[-61.892052,-37.022529],[-62.019701,-36.849688],[-61.993256,-36.854244],[-62.473292,-36.457208]]]},"properties":{"id":"06399","nombre":"Guaminí","nombre_completo":"Partido de Guaminí","provincia":{"id":"06","nombre":"Buenos Aires","interseccion":0},"fuente":"IGN","categoria":"Partido","centroide":{"lon":-62.418531061,"lat":-36.890675511}}},{"type":"Feature","geometry":{"type":"Polygon","coordinates":[[[-58.864113,-34.616882],[-58.92842,-34.516204],[-58.96189,-34.533741],[-58.954201,-34.543725],[-59.056377,-34.616464],[-59.133682,-34.664055],[-59.091209,-34.719233],[-59.03175,-34.763825],[-58.998289,-34.762792],[-58.935344,-34.703731],[-58.884468,-34.668796],[-58.864113,-34.616882]]]},"properties":{"id":"06364","nombre":"General Rodríguez","nombre_completo":"Partido de General Rodríguez","provincia":{"id":"06","nombre":"Buenos Aires","interseccion":0},"fuente":"IGN","categoria":"Partido","centroide":{"lon":-58.987846798,"lat":-34.65061569}}},{"type":"Feature","geometry":{"type":"Polygon","coordinates":[[[-59.672959,-34.582629],[-59.754879,-34.518276],[-59.944678,-34.671979],[-59.798118,-34.82566],[-59.635369,-34.957987],[-59.466512,-34.87259],[-59.522594,-34.828793],[-59.71641,-34.620022],[-59.672959,-34.582629]]]},"properties":{"id":"06784","nombre":"Suipacha","nombre_completo":"Partido de Suipacha","provincia":{"id":"06","nombre":"Buenos Aires","interseccion":0},"fuente":"IGN","categoria":"Partido","centroide":{"lon":-59.703386049,"lat":-34.748574135}}},{"type":"Feature","geometry":{"type":"Polygon","coordinates":[[[-58.562314,-34.591405],[-58.646336,-34.562968],[-58.529211,-34.65464],[-58.522972,-34.597563],[-58.562314,-34.591405]]]},"properties":{"id":"06840","nombre":"Tres de Febrero","nombre_completo":"Partido de Tres de Febrero","provincia":{"id":"06","nombre":"Buenos Aires","interseccion":0},"fuente":"IGN","categoria":"Partido","centroide":{"lon":-58.579188386,"lat":-34.596010074}}},{"type":"Feature","geometry":{"type":"Polygon","coordinates":[[[-59.218728,-34.852572],[-59.204517,-34.796227],[-59.408729,-34.842423],[-59.635369,-34.957987],[-59.605175,-34.997713],[-59.822241,-35.176824],[-59.721389,-35.222676],[-59.699119,-35.210947],[-59.663883,-35.210011],[-59.543009,-35.204349],[-59.552533,-35.254941],[-59.251455,-35.098279],[-59.247686,-35.064788],[-59.221344,-35.085086],[-59.071107,-34.961328],[-59.218728,-34.852572]]]},"properties":{"id":"06574","nombre":"Navarro","nombre_completo":"Partido de Navarro","provincia":{"id":"06","nombre":"Buenos Aires","interseccion":0},"fuente":"IGN","categoria":"Partido","centroide":{"lon":-59.429358554,"lat":-35.030484482}}},{"type":"Feature","geometry":{"type":"Polygon","coordinates":[[[-58.599054,-34.942952],[-58.650331,-34.891087],[-58.765341,-34.958997],[-58.777483,-34.964965],[-58.934096,-35.103508],[-58.868975,-35.15357],[-58.894852,-35.176187],[-58.746748,-35.252702],[-58.663133,-35.354955],[-58.582098,-35.421437],[-58.525111,-35.366574],[-58.571654,-35.328204],[-58.46797,-35.238425],[-58.577919,-35.151662],[-58.600439,-35.052424],[-58.620151,-34.960741],[-58.599054,-34.942952]]]},"properties":{"id":"06134","nombre":"Cañuelas","nombre_completo":"Partido de Cañuelas","provincia":{"id":"06","nombre":"Buenos Aires","interseccion":0},"fuente":"IGN","categoria":"Partido","centroide":{"lon":-58.691094185,"lat":-35.144804496}}},{"type":"Feature","geometry":{"type":"Polygon","coordinates":[[[-58.992581,-35.021429],[-59.071037,-34.961245],[-59.221344,-35.085086],[-59.247686,-35.064788],[-59.251455,-35.098279],[-59.552533,-35.254941],[-59.549982,-35.267531],[-59.480334,-35.287301],[-59.468508,-35.307371],[-59.393378,-35.290948],[-59.322525,-35.374677],[-59.26286,-35.390682],[-59.167243,-35.405904],[-59.02541,-35.352275],[-58.925107,-35.341701],[-58.808586,-35.23932],[-58.894852,-35.176187],[-58.868975,-35.15357],[-59.014807,-35.041293],[-58.992581,-35.021429]]]},"properties":{"id":"06483","nombre":"Lobos","nombre_completo":"Partido de Lobos","provincia":{"id":"06","nombre":"Buenos Aires","interseccion":0},"fuente":"IGN","categoria":"Partido","centroide":{"lon":-59.145741883,"lat":-35.219585786}}},{"type":"Feature","geometry":{"type":"Polygon","coordinates":[[[-60.117957,-35.833675],[-60.213913,-35.756165],[-60.417136,-35.928244],[-60.461554,-35.949308],[-60.470953,-35.981062],[-60.57241,-36.028751],[-60.634758,-36.110023],[-60.698885,-36.135771],[-60.565185,-36.236201],[-60.35968,-36.326405],[-60.090175,-36.16134],[-59.966942,-36.248596],[-59.797111,-36.043748],[-59.718057,-36.105853],[-59.592439,-36.040529],[-59.516484,-35.975994],[-59.70006,-35.831667],[-59.872342,-35.876673],[-60.05608,-35.780529],[-60.117957,-35.833675]]]},"properties":{"id":"06287","nombre":"General Alvear","nombre_completo":"Partido de General Alvear","provincia":{"id":"06","nombre":"Buenos Aires","interseccion":0},"fuente":"IGN","categoria":"Partido","centroide":{"lon":-60.133153104,"lat":-36.03471065}}},{"type":"Feature","geometry":{"type":"Polygon","coordinates":[[[-58.298454,-34.783439],[-58.194645,-34.735695],[-58.279639,-34.678642],[-58.346962,-34.739344],[-58.304114,-34.801165],[-58.298454,-34.783439]]]},"properties":{"id":"06658","nombre":"Quilmes","nombre_completo":"Partido de Quilmes","provincia":{"id":"06","nombre":"Buenos Aires","interseccion":0},"fuente":"IGN","categoria":"Partido","centroide":{"lon":-58.276858021,"lat":-34.734970799}}},{"type":"Feature","geometry":{"type":"Polygon","coordinates":[[[-58.204319,-35.825715],[-58.263821,-35.823052],[-58.271799,-35.858634],[-58.571854,-36.120966],[-58.70753,-36.01728],[-58.828857,-36.110816],[-58.763092,-36.208308],[-58.579097,-36.347371],[-58.213064,-36.615489],[-58.101463,-36.521294],[-58.189421,-36.452361],[-57.959721,-36.252922],[-58.093219,-36.154813],[-57.966803,-36.064632],[-58.033108,-36.014475],[-58.008142,-35.960545],[-58.090674,-35.939232],[-58.147228,-35.866575],[-58.185232,-35.863478],[-58.204319,-35.825715]]]},"properties":{"id":"06630","nombre":"Pila","nombre_completo":"Partido de Pila","provincia":{"id":"06","nombre":"Buenos Aires","interseccion":0},"fuente":"IGN","categoria":"Partido","centroide":{"lon":-58.340443051,"lat":-36.202984224}}},{"type":"Feature","geometry":{"type":"Polygon","coordinates":[[[-60.891327,-37.302355],[-61.423479,-36.864583],[-61.740514,-37.106126],[-61.744262,-37.271556],[-61.44205,-37.734938],[-61.60554,-37.861534],[-61.509471,-37.939054],[-60.878539,-37.451456],[-60.975452,-37.36813],[-60.891327,-37.302355]]]},"properties":{"id":"06322","nombre":"General La Madrid","nombre_completo":"Partido de General La Madrid","provincia":{"id":"06","nombre":"Buenos Aires","interseccion":0},"fuente":"IGN","categoria":"Partido","centroide":{"lon":-61.344130895,"lat":-37.356127777}}},{"type":"Feature","geometry":{"type":"Polygon","coordinates":[[[-60.695447,-35.968815],[-60.867915,-35.840008],[-60.969673,-35.926616],[-61.035297,-35.876663],[-61.439692,-36.214419],[-61.406099,-36.240961],[-61.724667,-36.494265],[-61.685623,-36.535906],[-61.616876,-36.569896],[-61.497217,-36.744068],[-61.36885,-36.640992],[-61.254822,-36.734982],[-60.896234,-36.451336],[-60.929622,-36.424551],[-60.860253,-36.322509],[-60.799079,-36.231555],[-60.810381,-36.210357],[-60.727343,-36.13721],[-60.634758,-36.110023],[-60.57241,-36.028751],[-60.638071,-35.921069],[-60.695447,-35.968815]]]},"properties":{"id":"06105","nombre":"Bolívar","nombre_completo":"Partido de Bolívar","provincia":{"id":"06","nombre":"Buenos Aires","interseccion":0},"fuente":"IGN","categoria":"Partido","centroide":{"lon":-61.149860085,"lat":-36.298947958}}},{"type":"Feature","geometry":{"type":"Polygon","coordinates":[[[-59.229713,-36.42085],[-59.487573,-36.227528],[-59.634577,-36.35887],[-59.727204,-36.288222],[-59.931181,-36.466614],[-60.023689,-36.531839],[-59.918892,-36.614812],[-60.062826,-36.731805],[-60.135004,-36.674827],[-60.161412,-36.719657],[-60.001358,-36.835483],[-60.126382,-37.096824],[-60.207603,-37.172768],[-59.986742,-37.339941],[-59.953258,-37.447512],[-59.826494,-37.31093],[-59.806436,-37.251132],[-59.69936,-37.216611],[-59.359664,-36.897223],[-59.365012,-36.85126],[-59.352794,-36.825044],[-59.281526,-36.764637],[-59.13842,-36.542876],[-59.249996,-36.437525],[-59.229713,-36.42085]]]},"properties":{"id":"06049","nombre":"Azul","nombre_completo":"Partido de Azul","provincia":{"id":"06","nombre":"Buenos Aires","interseccion":0},"fuente":"IGN","categoria":"Partido","centroide":{"lon":-59.696478338,"lat":-36.785935217}}},{"type":"Feature","geometry":{"type":"Polygon","coordinates":[[[-62.048248,-36.325905],[-62.144315,-36.245472],[-62.178949,-36.271882],[-62.473292,-36.457208],[-61.993256,-36.854244],[-62.019701,-36.849688],[-61.859765,-36.992546],[-61.778158,-36.930425],[-61.70785,-36.907189],[-61.599035,-36.998985],[-61.254822,-36.734982],[-61.36885,-36.640992],[-61.497217,-36.744068],[-61.616876,-36.569896],[-61.685623,-36.535906],[-61.724667,-36.494265],[-61.763409,-36.524946],[-62.048248,-36.325905]]]},"properties":{"id":"06231","nombre":"Daireaux","nombre_completo":"Partido de Daireaux","provincia":{"id":"06","nombre":"Buenos Aires","interseccion":0},"fuente":"IGN","categoria":"Partido","centroide":{"lon":-61.891249553,"lat":-36.640869217}}},{"type":"Feature","geometry":{"type":"Polygon","coordinates":[[[-62.383878,-37.393046],[-62.425401,-37.348682],[-62.581433,-37.549222],[-62.895559,-37.819165],[-62.575304,-38.075172],[-62.489683,-38.008184],[-62.346075,-38.136294],[-62.157986,-37.966556],[-62.098933,-37.935484],[-62.04469,-37.752474],[-62.383878,-37.393046]]]},"properties":{"id":"06700","nombre":"Saavedra","nombre_completo":"Partido de Saavedra","provincia":{"id":"06","nombre":"Buenos Aires","interseccion":0},"fuente":"IGN","categoria":"Partido","centroide":{"lon":-62.434382914,"lat":-37.770638133}}},{"type":"Feature","geometry":{"type":"Polygon","coordinates":[[[-61.314896,-38.946281],[-61.342026,-38.915846],[-61.45268,-38.924034],[-61.45573,-38.995401],[-61.110167,-38.99589],[-61.13784,-38.929388],[-61.314896,-38.946281]]]},"properties":{"id":"06553","nombre":"Monte Hermoso","nombre_completo":"Partido de Monte Hermoso","provincia":{"id":"06","nombre":"Buenos Aires","interseccion":0},"fuente":"IGN","categoria":"Partido","centroide":{"lon":-61.292146695,"lat":-38.961623789}}},{"type":"Feature","geometry":{"type":"Polygon","coordinates":[[[-58.507343,-37.805742],[-58.809127,-37.578725],[-59.162361,-37.876616],[-59.167908,-37.936657],[-59.127687,-37.973595],[-58.752001,-38.488722],[-58.708025,-38.495017],[-58.619452,-38.561874],[-58.238084,-38.445795],[-58.256504,-38.43595],[-58.284854,-38.385569],[-58.343611,-38.15957],[-58.329126,-38.074098],[-58.591233,-37.877994],[-58.507343,-37.805742]]]},"properties":{"id":"06476","nombre":"Lobería","nombre_completo":"Partido de Lobería","provincia":{"id":"06","nombre":"Buenos Aires","interseccion":0},"fuente":"IGN","categoria":"Partido","centroide":{"lon":-58.693549779,"lat":-38.090052819}}},{"type":"Feature","geometry":{"type":"Polygon","coordinates":[[[-57.752355,-34.970663],[-57.876953,-34.827722],[-57.931845,-34.903461],[-57.895903,-34.930436],[-57.752355,-34.970663]]]},"properties":{"id":"06098","nombre":"Berisso","nombre_completo":"Partido de Berisso","provincia":{"id":"06","nombre":"Buenos Aires","interseccion":0},"fuente":"IGN","categoria":"Partido","centroide":{"lon":-57.828379772,"lat":-34.909355114}}},{"type":"Feature","geometry":{"type":"Polygon","coordinates":[[[-57.209226,-36.196221],[-57.417854,-36.157623],[-57.473263,-36.340341],[-57.342985,-36.366172],[-57.464357,-36.570926],[-57.328779,-36.669157],[-57.064657,-36.385595],[-57.018512,-36.322275],[-57.209226,-36.196221]]]},"properties":{"id":"06812","nombre":"Tordillo","nombre_completo":"Partido de Tordillo","provincia":{"id":"06","nombre":"Buenos Aires","interseccion":0},"fuente":"IGN","categoria":"Partido","centroide":{"lon":-57.273811645,"lat":-36.390515122}}},{"type":"Feature","geometry":{"type":"Polygon","coordinates":[[[-59.168091,-33.809387],[-59.276361,-33.820257],[-59.30209,-33.846625],[-59.240136,-33.896258],[-59.260541,-33.941577],[-59.309814,-33.924122],[-59.347137,-33.935033],[-59.308491,-34.019271],[-59.302504,-34.064062],[-59.279567,-34.145967],[-59.102904,-34.200122],[-58.973315,-34.129096],[-58.966046,-33.960581],[-58.837201,-33.953751],[-58.868435,-33.936506],[-58.89978,-33.890991],[-59.055481,-33.832397],[-59.168091,-33.809387]]]},"properties":{"id":"06882","nombre":"Zárate","nombre_completo":"Partido de Zárate","provincia":{"id":"06","nombre":"Buenos Aires","interseccion":0},"fuente":"IGN","categoria":"Partido","centroide":{"lon":-59.1282153,"lat":-33.997089798}}},{"type":"Feature","geometry":{"type":"Polygon","coordinates":[[[-60.04484,-33.447527],[-60.098816,-33.383118],[-60.138123,-33.35907],[-60.168068,-33.352751],[-60.171356,-33.386881],[-60.189845,-33.40878],[-60.193732,-33.450409],[-60.159961,-33.473895],[-60.172126,-33.510936],[-60.199045,-33.534505],[-60.244439,-33.615686],[-60.280919,-33.62046],[-60.313175,-33.651123],[-60.17224,-33.661924],[-60.141242,-33.693094],[-60.156379,-33.745477],[-60.016753,-33.826422],[-60.072709,-33.778856],[-60.041144,-33.768819],[-59.80953,-33.551657],[-59.894744,-33.510284],[-60.04484,-33.447527]]]},"properties":{"id":"06665","nombre":"Ramallo","nombre_completo":"Partido de Ramallo","provincia":{"id":"06","nombre":"Buenos Aires","interseccion":0},"fuente":"IGN","categoria":"Partido","centroide":{"lon":-60.057506441,"lat":-33.587186147}}},{"type":"Feature","geometry":{"type":"Polygon","coordinates":[[[-60.200684,-33.292175],[-60.272714,-33.263863],[-60.264612,-33.281316],[-60.323963,-33.350753],[-60.410217,-33.467886],[-60.418494,-33.55853],[-60.458415,-33.587507],[-60.429335,-33.619387],[-60.326792,-33.68327],[-60.286591,-33.624462],[-60.242323,-33.613425],[-60.160214,-33.47861],[-60.194469,-33.444784],[-60.165553,-33.350769],[-60.200684,-33.292175]]]},"properties":{"id":"06763","nombre":"San Nicolás","nombre_completo":"Partido de San Nicolás","provincia":{"id":"06","nombre":"Buenos Aires","interseccion":0},"fuente":"IGN","categoria":"Partido","centroide":{"lon":-60.29314878,"lat":-33.482987331}}},{"type":"Feature","geometry":{"type":"Polygon","coordinates":[[[-61.122081,-34.07195],[-61.210038,-34.125527],[-61.331409,-34.025678],[-61.648388,-34.319473],[-61.549084,-34.303386],[-61.471675,-34.307407],[-61.395408,-34.373502],[-61.329167,-34.453145],[-61.168395,-34.359374],[-61.098149,-34.284531],[-61.070098,-34.307214],[-61.041553,-34.283292],[-61.059106,-34.269008],[-60.91725,-34.241587],[-61.122081,-34.07195]]]},"properties":{"id":"06294","nombre":"General Arenales","nombre_completo":"Partido de General Arenales","provincia":{"id":"06","nombre":"Buenos Aires","interseccion":0},"fuente":"IGN","categoria":"Partido","centroide":{"lon":-61.283381226,"lat":-34.237902043}}},{"type":"Feature","geometry":{"type":"Polygon","coordinates":[[[-59.524477,-35.456402],[-59.822701,-35.496493],[-59.886577,-35.48081],[-59.930062,-35.488177],[-60.02802,-35.55258],[-60.008422,-35.579878],[-60.039969,-35.624195],[-60.00544,-35.661698],[-60.116733,-35.664442],[-60.2186,-35.752348],[-60.117957,-35.833675],[-60.05608,-35.780529],[-59.872342,-35.876673],[-59.691909,-35.827586],[-59.647116,-35.861637],[-59.569427,-35.853817],[-59.505701,-35.817001],[-59.416425,-35.8022],[-59.347269,-35.803595],[-59.183348,-35.76286],[-59.41261,-35.586127],[-59.349668,-35.529441],[-59.524477,-35.456402]]]},"properties":{"id":"06707","nombre":"Saladillo","nombre_completo":"Partido de Saladillo","provincia":{"id":"06","nombre":"Buenos Aires","interseccion":0},"fuente":"IGN","categoria":"Partido","centroide":{"lon":-59.702660744,"lat":-35.676806452}}},{"type":"Feature","geometry":{"type":"Polygon","coordinates":[[[-58.974425,-35.816928],[-59.131081,-35.698178],[-59.174878,-35.712006],[-59.183348,-35.76286],[-59.347269,-35.803595],[-59.416425,-35.8022],[-59.479543,-35.81092],[-59.560083,-35.85103],[-59.641602,-35.862003],[-59.676141,-35.833325],[-59.70006,-35.831667],[-59.516484,-35.975994],[-59.553214,-36.006791],[-59.382453,-36.135384],[-59.488195,-36.227053],[-59.292984,-36.37464],[-59.218405,-36.321212],[-59.103079,-36.247003],[-58.828857,-36.110816],[-58.70753,-36.01728],[-58.749021,-35.98472],[-58.974425,-35.816928]]]},"properties":{"id":"06455","nombre":"Las Flores","nombre_completo":"Partido de Las Flores","provincia":{"id":"06","nombre":"Buenos Aires","interseccion":0},"fuente":"IGN","categoria":"Partido","centroide":{"lon":-59.17646095,"lat":-36.015826657}}},{"type":"Feature","geometry":{"type":"Polygon","coordinates":[[[-60.715401,-34.035737],[-60.703284,-34.02687],[-60.895253,-33.886616],[-60.949114,-33.923005],[-61.062694,-34.039381],[-61.122081,-34.07195],[-60.91725,-34.241587],[-61.059106,-34.269008],[-60.966443,-34.345827],[-60.902675,-34.326078],[-60.677205,-34.509355],[-60.559846,-34.406436],[-60.578268,-34.392173],[-60.46989,-34.199868],[-60.715401,-34.035737]]]},"properties":{"id":"06686","nombre":"Rojas","nombre_completo":"Partido de Rojas","provincia":{"id":"06","nombre":"Buenos Aires","interseccion":0},"fuente":"IGN","categoria":"Partido","centroide":{"lon":-60.788023465,"lat":-34.192817389}}},{"type":"Feature","geometry":{"type":"Polygon","coordinates":[[[-58.712152,-34.248902],[-58.798512,-34.230221],[-58.776382,-34.285744],[-58.858387,-34.261979],[-58.900643,-34.308488],[-58.816989,-34.415404],[-58.777666,-34.404272],[-58.737313,-34.456416],[-58.70561,-34.439337],[-58.734634,-34.40246],[-58.720619,-34.36329],[-58.680813,-34.347213],[-58.649515,-34.266598],[-58.712152,-34.248902]]]},"properties":{"id":"06252","nombre":"Escobar","nombre_completo":"Partido de Escobar","provincia":{"id":"06","nombre":"Buenos Aires","interseccion":0},"fuente":"IGN","categoria":"Partido","centroide":{"lon":-58.771178611,"lat":-34.328682834}}},{"type":"Feature","geometry":{"type":"Polygon","coordinates":[[[-58.720899,-34.518234],[-58.78948,-34.473851],[-58.821687,-34.451956],[-58.776028,-34.557058],[-58.720899,-34.518234]]]},"properties":{"id":"06412","nombre":"José C. Paz","nombre_completo":"Partido de José C. Paz","provincia":{"id":"06","nombre":"Buenos Aires","interseccion":0},"fuente":"IGN","categoria":"Partido","centroide":{"lon":-58.777634598,"lat":-34.511853163}}},{"type":"Feature","geometry":{"type":"Polygon","coordinates":[[[-62.196342,-38.452023],[-62.220692,-38.43341],[-62.239765,-38.360879],[-62.387813,-38.408546],[-62.614458,-38.591618],[-62.472886,-38.663293],[-62.354917,-38.75567],[-62.181981,-38.817059],[-62.061985,-38.712333],[-61.925669,-38.731246],[-61.847934,-38.665363],[-61.818412,-38.687872],[-61.742365,-38.627211],[-61.754178,-38.615251],[-61.778637,-38.579577],[-61.781602,-38.459945],[-62.08465,-38.362737],[-62.196342,-38.452023]]]},"properties":{"id":"06056","nombre":"Bahía Blanca","nombre_completo":"Partido de Bahía Blanca","provincia":{"id":"06","nombre":"Buenos Aires","interseccion":0},"fuente":"IGN","categoria":"Partido","centroide":{"lon":-62.169417449,"lat":-38.584189213}}},{"type":"Feature","geometry":{"type":"Polygon","coordinates":[[[-59.302504,-34.064062],[-59.321962,-33.996298],[-59.318215,-34.020659],[-59.334429,-34.038578],[-59.406464,-34.06095],[-59.562088,-34.167967],[-59.78158,-34.219316],[-59.67533,-34.404053],[-59.644583,-34.417529],[-59.419483,-34.268607],[-59.3666,-34.198921],[-59.279567,-34.145967],[-59.302504,-34.064062]]]},"properties":{"id":"06735","nombre":"San Antonio de Areco","nombre_completo":"Partido de San Antonio de Areco","provincia":{"id":"06","nombre":"Buenos Aires","interseccion":0},"fuente":"IGN","categoria":"Partido","centroide":{"lon":-59.519443482,"lat":-34.220757566}}},{"type":"Feature","geometry":{"type":"Polygon","coordinates":[[[-57.328779,-36.669157],[-57.464357,-36.570926],[-57.49374,-36.581361],[-57.70711,-36.76301],[-58.010671,-36.95872],[-57.674815,-37.202944],[-57.486938,-37.104952],[-57.493385,-37.017144],[-57.304915,-37.003893],[-57.175823,-36.784425],[-57.328779,-36.669157]]]},"properties":{"id":"06511","nombre":"Maipú","nombre_completo":"Partido de Maipú","provincia":{"id":"06","nombre":"Buenos Aires","interseccion":0},"fuente":"IGN","categoria":"Partido","centroide":{"lon":-57.586119104,"lat":-36.886933208}}},{"type":"Feature","geometry":{"type":"Polygon","coordinates":[[[-57.942573,-38.008937],[-57.959154,-38.022583],[-58.047284,-37.955622],[-58.255909,-38.130861],[-58.329685,-38.074677],[-58.343611,-38.15957],[-58.284854,-38.385569],[-58.243044,-38.445854],[-57.852731,-38.296399],[-57.821205,-38.120476],[-57.942573,-38.008937]]]},"properties":{"id":"06280","nombre":"General Alvarado","nombre_completo":"Partido de General Alvarado","provincia":{"id":"06","nombre":"Buenos Aires","interseccion":0},"fuente":"IGN","categoria":"Partido","centroide":{"lon":-58.071805373,"lat":-38.202627713}}},{"type":"Feature","geometry":{"type":"Polygon","coordinates":[[[-57.698054,-37.754267],[-57.673258,-37.748153],[-57.735836,-37.699552],[-58.047284,-37.955622],[-57.959004,-38.022687],[-57.942573,-38.008937],[-57.821205,-38.120476],[-57.776797,-38.245516],[-57.636547,-38.17319],[-57.51973,-37.889483],[-57.698054,-37.754267]]]},"properties":{"id":"06357","nombre":"General Pueyrredón","nombre_completo":"Partido de General Pueyrredón","provincia":{"id":"06","nombre":"Buenos Aires","interseccion":0},"fuente":"IGN","categoria":"Partido","centroide":{"lon":-57.743028348,"lat":-37.965683142}}},{"type":"Feature","geometry":{"type":"Polygon","coordinates":[[[-57.674815,-37.202944],[-57.768972,-37.135971],[-58.09451,-37.437404],[-57.673208,-37.744981],[-57.698054,-37.754267],[-57.51973,-37.889483],[-57.187643,-37.549754],[-57.674815,-37.202944]]]},"properties":{"id":"06518","nombre":"Mar Chiquita","nombre_completo":"Partido de Mar Chiquita","provincia":{"id":"06","nombre":"Buenos Aires","interseccion":0},"fuente":"IGN","categoria":"Partido","centroide":{"lon":-57.643266056,"lat":-37.498640598}}},{"type":"Feature","geometry":{"type":"Polygon","coordinates":[[[-56.909127,-37.189025],[-56.949547,-37.184577],[-56.99197,-37.237095],[-57.21112,-37.533013],[-57.187643,-37.549754],[-56.909127,-37.189025]]]},"properties":{"id":"06868","nombre":"Villa Gesell","nombre_completo":"Partido de Villa Gesell","provincia":{"id":"06","nombre":"Buenos Aires","interseccion":0},"fuente":"IGN","categoria":"Partido","centroide":{"lon":-57.063397882,"lat":-37.367071956}}},{"type":"Feature","geometry":{"type":"Polygon","coordinates":[[[-56.819314,-37.024916],[-56.949547,-37.184577],[-56.909127,-37.189025],[-56.790235,-37.034131],[-56.819314,-37.024916]]]},"properties":{"id":"06644","nombre":"Pinamar","nombre_completo":"Partido de Pinamar","provincia":{"id":"06","nombre":"Buenos Aires","interseccion":0},"fuente":"IGN","categoria":"Partido","centroide":{"lon":-56.870283412,"lat":-37.11107429}}},{"type":"Feature","geometry":{"type":"Polygon","coordinates":[[[-56.752817,-36.337997],[-57.064657,-36.385595],[-57.328779,-36.669157],[-57.08975,-36.829523],[-56.946978,-36.995091],[-56.819485,-37.025201],[-56.697922,-36.853884],[-56.752817,-36.337997]]]},"properties":{"id":"06336","nombre":"General Lavalle","nombre_completo":"Partido de General Lavalle","provincia":{"id":"06","nombre":"Buenos Aires","interseccion":0},"fuente":"IGN","categoria":"Partido","centroide":{"lon":-56.94100299,"lat":-36.650750377}}},{"type":"Feature","geometry":{"type":"Polygon","coordinates":[[[-56.790235,-37.034131],[-56.664991,-36.87147],[-56.752817,-36.337997],[-56.697922,-36.853884],[-56.819314,-37.024916],[-56.790235,-37.034131]]]},"properties":{"id":"06420","nombre":"La Costa","nombre_completo":"Partido de La Costa","provincia":{"id":"06","nombre":"Buenos Aires","interseccion":0},"fuente":"IGN","categoria":"Partido","centroide":{"lon":-56.715940275,"lat":-36.697167821}}},{"type":"Feature","geometry":{"type":"Polygon","coordinates":[[[-57.3037,-35.197184],[-57.705682,-34.930806],[-57.968108,-35.159689],[-57.890143,-35.222141],[-58.025003,-35.353784],[-57.947196,-35.371952],[-57.873923,-35.385885],[-57.814518,-35.441903],[-57.796174,-35.444921],[-57.726803,-35.3493],[-57.613395,-35.33306],[-57.632982,-35.260864],[-57.571344,-35.363429],[-57.492901,-35.243591],[-57.3037,-35.197184]]]},"properties":{"id":"06505","nombre":"Magdalena","nombre_completo":"Partido de Magdalena","provincia":{"id":"06","nombre":"Buenos Aires","interseccion":0},"fuente":"IGN","categoria":"Partido","centroide":{"lon":-57.686127982,"lat":-35.18510307}}},{"type":"Feature","geometry":{"type":"Polygon","coordinates":[[[-58.500804,-34.549533],[-58.479285,-34.494397],[-58.553764,-34.530205],[-58.50996,-34.569205],[-58.500804,-34.549533]]]},"properties":{"id":"06861","nombre":"Vicente López","nombre_completo":"Partido de Vicente López","provincia":{"id":"06","nombre":"Buenos Aires","interseccion":0},"fuente":"IGN","categoria":"Partido","centroide":{"lon":-58.504486513,"lat":-34.526531424}}},{"type":"Feature","geometry":{"type":"Polygon","coordinates":[[[-58.763092,-36.208308],[-58.880729,-36.150618],[-59.103079,-36.247003],[-59.218405,-36.321212],[-59.229713,-36.42085],[-59.249996,-36.437525],[-59.13842,-36.542876],[-59.281526,-36.764637],[-59.359311,-36.84514],[-59.09013,-37.062779],[-59.040746,-37.026078],[-59.021495,-36.960095],[-58.936877,-36.936046],[-58.866825,-36.838371],[-58.666852,-36.742926],[-58.720954,-36.700227],[-58.43724,-36.452101],[-58.579097,-36.347371],[-58.763092,-36.208308]]]},"properties":{"id":"06672","nombre":"Rauch","nombre_completo":"Partido de Rauch","provincia":{"id":"06","nombre":"Buenos Aires","interseccion":0},"fuente":"IGN","categoria":"Partido","centroide":{"lon":-58.944141367,"lat":-36.572194449}}},{"type":"Feature","geometry":{"type":"Polygon","coordinates":[[[-58.713374,-34.605638],[-58.847501,-34.549171],[-58.864113,-34.616882],[-58.884468,-34.668796],[-58.860294,-34.685206],[-58.757549,-34.660482],[-58.713374,-34.605638]]]},"properties":{"id":"06560","nombre":"Moreno","nombre_completo":"Partido de Moreno","provincia":{"id":"06","nombre":"Buenos Aires","interseccion":0},"fuente":"IGN","categoria":"Partido","centroide":{"lon":-58.810898508,"lat":-34.610680786}}},{"type":"Feature","geometry":{"type":"Polygon","coordinates":[[[-58.483902,-34.732136],[-58.581876,-34.64317],[-58.636154,-34.715029],[-58.657915,-34.753297],[-58.703884,-34.778711],[-58.728396,-34.759307],[-58.750247,-34.777588],[-58.707051,-34.811268],[-58.749862,-34.847367],[-58.694106,-34.912195],[-58.615506,-34.818527],[-58.537507,-34.756953],[-58.504473,-34.721278],[-58.483902,-34.732136]]]},"properties":{"id":"06427","nombre":"La Matanza","nombre_completo":"Partido de La Matanza","provincia":{"id":"06","nombre":"Buenos Aires","interseccion":0},"fuente":"IGN","categoria":"Partido","centroide":{"lon":-58.625445695,"lat":-34.770348102}}},{"type":"Feature","geometry":{"type":"Polygon","coordinates":[[[-58.610899,-37.411263],[-59.211289,-36.969627],[-59.210697,-36.95645],[-59.359311,-36.84514],[-59.359664,-36.897223],[-59.69936,-37.216611],[-59.779743,-37.238388],[-59.225977,-37.650843],[-59.185495,-37.616752],[-59.162562,-37.631559],[-59.153019,-37.658956],[-59.170841,-37.700552],[-59.133571,-37.757489],[-59.110395,-37.826431],[-58.610899,-37.411263]]]},"properties":{"id":"06791","nombre":"Tandil","nombre_completo":"Partido de Tandil","provincia":{"id":"06","nombre":"Buenos Aires","interseccion":0},"fuente":"IGN","categoria":"Partido","centroide":{"lon":-59.18198279,"lat":-37.336429317}}},{"type":"Feature","geometry":{"type":"Polygon","coordinates":[[[-61.744262,-37.271556],[-61.702772,-37.216555],[-61.735437,-37.093506],[-61.60463,-36.994425],[-61.70785,-36.907189],[-61.778158,-36.930425],[-61.892052,-37.022529],[-62.425401,-37.348682],[-62.383878,-37.393046],[-62.04469,-37.752474],[-62.098933,-37.935484],[-62.049601,-37.971499],[-61.930716,-38.008459],[-61.799747,-38.109579],[-61.792692,-38.137492],[-61.767389,-38.17245],[-61.682948,-38.0742],[-61.509315,-37.937967],[-61.60554,-37.861534],[-61.44205,-37.734938],[-61.744262,-37.271556]]]},"properties":{"id":"06203","nombre":"Coronel Suárez","nombre_completo":"Partido de Coronel Suárez","provincia":{"id":"06","nombre":"Buenos Aires","interseccion":0},"fuente":"IGN","categoria":"Partido","centroide":{"lon":-61.889092242,"lat":-37.53485625}}},{"type":"Feature","geometry":{"type":"Polygon","coordinates":[[[-60.323435,-37.776369],[-60.424207,-37.697668],[-60.378022,-37.662685],[-60.452736,-37.601036],[-60.58083,-37.700807],[-60.556671,-37.720854],[-60.845653,-37.935799],[-60.74377,-38.016051],[-60.759493,-38.028543],[-60.549611,-38.19215],[-60.370689,-38.016721],[-60.036304,-38.280844],[-59.886661,-38.157281],[-59.775876,-38.210258],[-59.641345,-38.025151],[-59.67703,-38.000114],[-59.673675,-37.979546],[-59.936614,-37.794446],[-60.018164,-37.860745],[-60.261959,-37.728752],[-60.323435,-37.776369]]]},"properties":{"id":"06014","nombre":"Adolfo Gonzales Chaves","nombre_completo":"Partido de Adolfo Gonzales Chaves","provincia":{"id":"06","nombre":"Buenos Aires","interseccion":0},"fuente":"IGN","categoria":"Partido","centroide":{"lon":-60.248282132,"lat":-37.964615907}}},{"type":"Feature","geometry":{"type":"Polygon","coordinates":[[[-58.430635,-34.60596],[-58.4333,-34.602692],[-58.446213,-34.607634],[-58.458439,-34.60451],[-58.462669,-34.607391],[-58.451541,-34.630657],[-58.426722,-34.627016],[-58.429994,-34.615467],[-58.430635,-34.60596]]]},"properties":{"id":"02042","nombre":"Comuna 6","nombre_completo":"Comuna 6","provincia":{"id":"02","nombre":"Ciudad Autónoma de Buenos Aires","interseccion":0},"fuente":"IGN","categoria":"Comuna","centroide":{"lon":-58.443568228,"lat":-34.61684339}}},{"type":"Feature","geometry":{"type":"Polygon","coordinates":[[[-58.246816,-35.365325],[-58.442963,-35.216238],[-58.571654,-35.328204],[-58.525111,-35.366574],[-58.582085,-35.421434],[-58.470486,-35.511942],[-58.568715,-35.595902],[-58.486524,-35.706937],[-58.462586,-35.686593],[-58.441379,-35.702871],[-58.436248,-35.733051],[-58.152389,-35.472373],[-58.193911,-35.440953],[-58.18685,-35.382581],[-58.246816,-35.365325]]]},"properties":{"id":"06343","nombre":"General Paz","nombre_completo":"Partido de General Paz","provincia":{"id":"06","nombre":"Buenos Aires","interseccion":0},"fuente":"IGN","categoria":"Partido","centroide":{"lon":-58.389651959,"lat":-35.46618301}}},{"type":"Feature","geometry":{"type":"Polygon","coordinates":[[[-62.970025,-36.863033],[-62.813186,-36.734267],[-63.01261,-36.57265],[-63.127556,-36.479504],[-63.282763,-36.607562],[-62.970025,-36.863033]]]},"properties":{"id":"06721","nombre":"Salliqueló","nombre_completo":"Partido de Salliqueló","provincia":{"id":"06","nombre":"Buenos Aires","interseccion":0},"fuente":"IGN","categoria":"Partido","centroide":{"lon":-63.047973527,"lat":-36.671777535}}},{"type":"Feature","geometry":{"type":"Polygon","coordinates":[[[-58.211085,-34.951783],[-58.017688,-34.780318],[-58.267461,-34.773646],[-58.179871,-34.866004],[-58.247414,-34.923592],[-58.211085,-34.951783]]]},"properties":{"id":"06091","nombre":"Berazategui","nombre_completo":"Partido de Berazategui","provincia":{"id":"06","nombre":"Buenos Aires","interseccion":0},"fuente":"IGN","categoria":"Partido","centroide":{"lon":-58.155461509,"lat":-34.81824477}}},{"type":"Feature","geometry":{"type":"Polygon","coordinates":[[[-61.84537,-34.637413],[-61.983941,-34.518249],[-61.81615,-34.385601],[-62.269083,-34.385821],[-62.348165,-34.653782],[-62.188183,-34.682722],[-62.305054,-34.812823],[-62.104559,-34.984689],[-61.9832,-34.886031],[-61.902716,-34.952754],[-61.673472,-34.760952],[-61.772899,-34.676405],[-61.769608,-34.576422],[-61.84537,-34.637413]]]},"properties":{"id":"06351","nombre":"General Pinto","nombre_completo":"Partido de General Pinto","provincia":{"id":"06","nombre":"Buenos Aires","interseccion":0},"fuente":"IGN","categoria":"Partido","centroide":{"lon":-62.039853674,"lat":-34.669621454}}},{"type":"Feature","geometry":{"type":"Polygon","coordinates":[[[-59.538113,-38.057257],[-59.641345,-38.025151],[-59.775876,-38.210258],[-59.989967,-38.371421],[-59.886358,-38.52933],[-59.733663,-38.488938],[-59.627294,-38.785837],[-59.332795,-38.736675],[-59.444727,-38.588523],[-59.340307,-38.547752],[-59.405854,-38.457143],[-59.246237,-38.153052],[-59.538113,-38.057257]]]},"properties":{"id":"06742","nombre":"San Cayetano","nombre_completo":"Partido de San Cayetano","provincia":{"id":"06","nombre":"Buenos Aires","interseccion":0},"fuente":"IGN","categoria":"Partido","centroide":{"lon":-59.58632644,"lat":-38.389073197}}},{"type":"Feature","geometry":{"type":"Polygon","coordinates":[[[-60.036304,-38.280844],[-60.370689,-38.016721],[-60.549611,-38.19215],[-60.676254,-38.093133],[-60.724811,-38.118401],[-60.729296,-38.196661],[-60.718722,-38.224226],[-60.746873,-38.229951],[-60.619604,-38.471277],[-60.612497,-38.586931],[-60.536752,-38.82231],[-60.49272,-38.928536],[-59.627294,-38.785837],[-59.733663,-38.488938],[-59.886358,-38.52933],[-59.989967,-38.371421],[-59.833518,-38.242234],[-59.883207,-38.160282],[-60.036304,-38.280844]]]},"properties":{"id":"06833","nombre":"Tres Arroyos","nombre_completo":"Partido de Tres Arroyos","provincia":{"id":"06","nombre":"Buenos Aires","interseccion":0},"fuente":"IGN","categoria":"Partido","centroide":{"lon":-60.237417325,"lat":-38.511814275}}},{"type":"Feature","geometry":{"type":"Polygon","coordinates":[[[-61.077814,-38.293347],[-61.188565,-38.290579],[-61.728495,-38.657088],[-61.715451,-38.714322],[-61.698761,-38.781423],[-61.47367,-38.945992],[-61.424366,-38.916338],[-61.342348,-38.915479],[-61.314896,-38.946281],[-61.13784,-38.929388],[-61.110167,-38.99589],[-60.497336,-38.928926],[-60.536752,-38.82231],[-60.612497,-38.586931],[-60.619604,-38.471277],[-60.740629,-38.330723],[-60.836122,-38.403817],[-61.077814,-38.293347]]]},"properties":{"id":"06189","nombre":"Coronel Dorrego","nombre_completo":"Partido de Coronel Dorrego","provincia":{"id":"06","nombre":"Buenos Aires","interseccion":0},"fuente":"IGN","categoria":"Partido","centroide":{"lon":-61.095550573,"lat":-38.670817608}}},{"type":"Feature","geometry":{"type":"Polygon","coordinates":[[[-59.170841,-37.700552],[-59.153057,-37.657436],[-59.184695,-37.616925],[-59.2925,-37.710327],[-59.383349,-37.758604],[-59.67703,-38.000114],[-59.538113,-38.057257],[-59.246237,-38.153052],[-59.405854,-38.457143],[-59.340307,-38.547752],[-59.444727,-38.588523],[-59.332795,-38.736675],[-58.619452,-38.561874],[-58.708025,-38.495017],[-58.752001,-38.488722],[-59.127687,-37.973595],[-59.168236,-37.936124],[-59.165399,-37.880647],[-59.10968,-37.838841],[-59.109382,-37.808157],[-59.133571,-37.757489],[-59.170841,-37.700552]]]},"properties":{"id":"06581","nombre":"Necochea","nombre_completo":"Partido de Necochea","provincia":{"id":"06","nombre":"Buenos Aires","interseccion":0},"fuente":"IGN","categoria":"Partido","centroide":{"lon":-59.167386947,"lat":-38.255411005}}},{"type":"Feature","geometry":{"type":"Polygon","coordinates":[[[-57.947196,-35.371952],[-58.025003,-35.353784],[-58.044821,-35.334563],[-58.138618,-35.420373],[-58.193911,-35.440953],[-58.152389,-35.472373],[-58.453639,-35.769544],[-58.41355,-35.814737],[-58.342751,-35.843587],[-58.271799,-35.858634],[-58.263821,-35.823052],[-58.204319,-35.825715],[-58.185232,-35.863478],[-58.096865,-35.775036],[-57.887372,-35.69987],[-57.749839,-35.766104],[-57.402058,-35.757487],[-57.409583,-35.7431],[-57.382962,-35.694198],[-57.426357,-35.615791],[-57.435254,-35.518227],[-57.687935,-35.484713],[-57.770626,-35.43982],[-57.814018,-35.442193],[-57.873923,-35.385885],[-57.947196,-35.371952]]]},"properties":{"id":"06218","nombre":"Chascomús","nombre_completo":"Partido de Chascomús","provincia":{"id":"06","nombre":"Buenos Aires","interseccion":0},"fuente":"IGN","categoria":"Partido","centroide":{"lon":-57.903981069,"lat":-35.618688309}}},{"type":"Feature","geometry":{"type":"Polygon","coordinates":[[[-57.382962,-35.694198],[-57.127938,-35.445758],[-57.3037,-35.197184],[-57.492901,-35.243591],[-57.571344,-35.363429],[-57.632982,-35.260864],[-57.613395,-35.33306],[-57.726803,-35.3493],[-57.770626,-35.43982],[-57.687935,-35.484713],[-57.435254,-35.518227],[-57.426357,-35.615791],[-57.382962,-35.694198]]]},"properties":{"id":"06655","nombre":"Punta Indio","nombre_completo":"Partido de Punta Indio","provincia":{"id":"06","nombre":"Buenos Aires","interseccion":0},"fuente":"IGN","categoria":"Partido","centroide":{"lon":-57.39923404,"lat":-35.426055877}}},{"type":"Feature","geometry":{"type":"Polygon","coordinates":[[[-57.749839,-35.766104],[-57.887372,-35.69987],[-58.096865,-35.775036],[-58.147228,-35.866575],[-58.090674,-35.939232],[-58.008142,-35.960545],[-57.983311,-36.028719],[-57.726066,-35.91978],[-57.707655,-35.832283],[-57.588031,-35.830725],[-57.512525,-35.824484],[-57.488967,-35.826301],[-57.749839,-35.766104]]]},"properties":{"id":"06466","nombre":"Lezama","nombre_completo":"Partido de Lezama","provincia":{"id":"06","nombre":"Buenos Aires","interseccion":0},"fuente":"IGN","categoria":"Partido","centroide":{"lon":-57.89484439,"lat":-35.849208392}}},{"type":"Feature","geometry":{"type":"Polygon","coordinates":[[[-58.6753,-34.025467],[-58.749462,-33.95459],[-58.77771,-33.942627],[-58.966046,-33.960581],[-58.973315,-34.129096],[-59.057152,-34.241501],[-58.907739,-34.359949],[-58.914931,-34.320724],[-58.862832,-34.264175],[-58.778742,-34.286755],[-58.798512,-34.230221],[-58.712152,-34.248902],[-58.80475,-34.087515],[-58.6753,-34.025467]]]},"properties":{"id":"06126","nombre":"Campana","nombre_completo":"Partido de Campana","provincia":{"id":"06","nombre":"Buenos Aires","interseccion":0},"fuente":"IGN","categoria":"Partido","centroide":{"lon":-58.882957379,"lat":-34.138388959}}},{"type":"Feature","geometry":{"type":"Polygon","coordinates":[[[-63.20373,-36.033076],[-63.385471,-35.883677],[-63.385367,-36.524945],[-63.282763,-36.607562],[-63.048637,-36.415414],[-62.978901,-36.280138],[-63.20373,-36.033076]]]},"properties":{"id":"06616","nombre":"Pellegrini","nombre_completo":"Partido de Pellegrini","provincia":{"id":"06","nombre":"Buenos Aires","interseccion":0},"fuente":"IGN","categoria":"Partido","centroide":{"lon":-63.225752112,"lat":-36.271191706}}},{"type":"Feature","geometry":{"type":"Polygon","coordinates":[[[-58.411885,-34.598021],[-58.429128,-34.598977],[-58.4333,-34.602692],[-58.430635,-34.60596],[-58.429994,-34.615467],[-58.423458,-34.640218],[-58.411227,-34.638117],[-58.414626,-34.608208],[-58.411885,-34.598021]]]},"properties":{"id":"02035","nombre":"Comuna 5","nombre_completo":"Comuna 5","provincia":{"id":"02","nombre":"Ciudad Autónoma de Buenos Aires","interseccion":0},"fuente":"IGN","categoria":"Comuna","centroide":{"lon":-58.42057219,"lat":-34.617369924}}},{"type":"Feature","geometry":{"type":"Polygon","coordinates":[[[-57.876953,-34.827722],[-58.016317,-34.780357],[-58.083632,-34.835145],[-57.990868,-34.879684],[-57.974604,-34.872367],[-57.931845,-34.903461],[-57.876953,-34.827722]]]},"properties":{"id":"06245","nombre":"Ensenada","nombre_completo":"Partido de Ensenada","provincia":{"id":"06","nombre":"Buenos Aires","interseccion":0},"fuente":"IGN","categoria":"Partido","centroide":{"lon":-57.979109093,"lat":-34.842149742}}},{"type":"Feature","geometry":{"type":"Polygon","coordinates":[[[-60.781951,-33.578969],[-60.818235,-33.543698],[-60.867133,-33.548303],[-60.911077,-33.580825],[-60.810809,-33.674801],[-60.942796,-33.85686],[-60.705401,-34.025122],[-60.715401,-34.035737],[-60.496387,-34.17646],[-60.3124,-34.001454],[-60.236577,-34.010707],[-60.231469,-33.869787],[-60.141242,-33.693094],[-60.17224,-33.661924],[-60.313175,-33.651123],[-60.326792,-33.68327],[-60.457452,-33.59835],[-60.468549,-33.63775],[-60.556949,-33.646598],[-60.781951,-33.578969]]]},"properties":{"id":"06623","nombre":"Pergamino","nombre_completo":"Partido de Pergamino","provincia":{"id":"06","nombre":"Buenos Aires","interseccion":0},"fuente":"IGN","categoria":"Partido","centroide":{"lon":-60.544782816,"lat":-33.836066814}}},{"type":"Feature","geometry":{"type":"Polygon","coordinates":[[[-62.581433,-37.549222],[-62.706044,-37.468294],[-62.813196,-37.373926],[-63.377337,-37.815126],[-63.385682,-37.808789],[-63.38424,-38.829224],[-62.654991,-38.267006],[-62.735947,-38.202478],[-62.654714,-38.139112],[-62.814394,-38.010744],[-62.73478,-37.947923],[-62.895559,-37.819165],[-62.581433,-37.549222]]]},"properties":{"id":"06651","nombre":"Puán","nombre_completo":"Partido de Puán","provincia":{"id":"06","nombre":"Buenos Aires","interseccion":0},"fuente":"IGN","categoria":"Partido","centroide":{"lon":-63.05743261,"lat":-38.076076321}}},{"type":"Feature","geometry":{"type":"Polygon","coordinates":[[[-62.269083,-34.385821],[-62.889898,-34.386539],[-63.385084,-34.385761],[-63.385707,-35.369724],[-63.329475,-35.323156],[-63.347169,-35.300041],[-63.211173,-35.22897],[-63.235514,-35.208572],[-63.139051,-35.128403],[-63.115413,-35.188868],[-62.964607,-35.311894],[-62.707517,-35.101156],[-62.657181,-35.110819],[-62.68835,-35.085097],[-62.610627,-35.022719],[-62.642162,-34.996989],[-62.584849,-34.61069],[-62.348166,-34.653785],[-62.269083,-34.385821]]]},"properties":{"id":"06392","nombre":"General Villegas","nombre_completo":"Partido de General Villegas","provincia":{"id":"06","nombre":"Buenos Aires","interseccion":0},"fuente":"IGN","categoria":"Partido","centroide":{"lon":-62.954198841,"lat":-34.770260502}}},{"type":"Feature","geometry":{"type":"Polygon","coordinates":[[[-58.515486,-34.581291],[-58.468046,-34.572928],[-58.476084,-34.538431],[-58.500804,-34.549533],[-58.515486,-34.581291]]]},"properties":{"id":"02084","nombre":"Comuna 12","nombre_completo":"Comuna 12","provincia":{"id":"02","nombre":"Ciudad Autónoma de Buenos Aires","interseccion":0},"fuente":"IGN","categoria":"Comuna","centroide":{"lon":-58.490428041,"lat":-34.566227607}}},{"type":"Feature","geometry":{"type":"Polygon","coordinates":[[[-58.451541,-34.630657],[-58.477771,-34.622402],[-58.469206,-34.641414],[-58.462963,-34.646188],[-58.466998,-34.651486],[-58.460366,-34.656824],[-58.454601,-34.65084],[-58.443289,-34.651207],[-58.437971,-34.655821],[-58.430395,-34.649891],[-58.43231,-34.641759],[-58.423458,-34.640218],[-58.426722,-34.627016],[-58.451541,-34.630657]]]},"properties":{"id":"02049","nombre":"Comuna 7","nombre_completo":"Comuna 7","provincia":{"id":"02","nombre":"Ciudad Autónoma de Buenos Aires","interseccion":0},"fuente":"IGN","categoria":"Comuna","centroide":{"lon":-58.451886857,"lat":-34.636554414}}},{"type":"Feature","geometry":{"type":"Polygon","coordinates":[[[-58.482706,-34.624648],[-58.500156,-34.609144],[-58.516913,-34.620233],[-58.529227,-34.611117],[-58.530367,-34.634814],[-58.520203,-34.632815],[-58.506782,-34.63583],[-58.502262,-34.645836],[-58.478509,-34.637012],[-58.476036,-34.638952],[-58.471267,-34.636673],[-58.477771,-34.622402],[-58.482706,-34.624648]]]},"properties":{"id":"02070","nombre":"Comuna 10","nombre_completo":"Comuna 10","provincia":{"id":"02","nombre":"Ciudad Autónoma de Buenos Aires","interseccion":0},"fuente":"IGN","categoria":"Comuna","centroide":{"lon":-58.502817847,"lat":-34.627851792}}},{"type":"Feature","geometry":{"type":"Polygon","coordinates":[[[-58.476356,-34.600218],[-58.503507,-34.594469],[-58.515486,-34.581291],[-58.529227,-34.611117],[-58.516913,-34.620233],[-58.500156,-34.609144],[-58.482706,-34.624648],[-58.462669,-34.607391],[-58.458439,-34.60451],[-58.468877,-34.601879],[-58.476356,-34.600218]]]},"properties":{"id":"02077","nombre":"Comuna 11","nombre_completo":"Comuna 11","provincia":{"id":"02","nombre":"Ciudad Autónoma de Buenos Aires","interseccion":0},"fuente":"IGN","categoria":"Comuna","centroide":{"lon":-58.496742008,"lat":-34.606137011}}},{"type":"Feature","geometry":{"type":"Polygon","coordinates":[[[-58.373872,-34.578714],[-58.400094,-34.569368],[-58.415967,-34.597873],[-58.404473,-34.598054],[-58.39869,-34.599778],[-58.386831,-34.599311],[-58.389832,-34.57822],[-58.375089,-34.580539],[-58.373872,-34.578714]]]},"properties":{"id":"02014","nombre":"Comuna 2","nombre_completo":"Comuna 2","provincia":{"id":"02","nombre":"Ciudad Autónoma de Buenos Aires","interseccion":0},"fuente":"IGN","categoria":"Comuna","centroide":{"lon":-58.394903542,"lat":-34.585788879}}},{"type":"Feature","geometry":{"type":"Polygon","coordinates":[[[-58.520507,-34.741056],[-58.537507,-34.756953],[-58.615506,-34.818527],[-58.650331,-34.891087],[-58.599054,-34.942952],[-58.620151,-34.960741],[-58.55317,-34.976277],[-58.510333,-34.901681],[-58.502852,-34.854959],[-58.520507,-34.741056]]]},"properties":{"id":"06270","nombre":"Ezeiza","nombre_completo":"Partido de Ezeiza","provincia":{"id":"06","nombre":"Buenos Aires","interseccion":0},"fuente":"IGN","categoria":"Partido","centroide":{"lon":-58.564701373,"lat":-34.876096844}}},{"type":"Feature","geometry":{"type":"Polygon","coordinates":[[[-58.443289,-34.651207],[-58.454601,-34.65084],[-58.464394,-34.660066],[-58.50262,-34.674594],[-58.42383,-34.66228],[-58.434399,-34.65313],[-58.437971,-34.655821],[-58.443289,-34.651207]]]},"properties":{"id":"02056","nombre":"Comuna 8","nombre_completo":"Comuna 8","provincia":{"id":"02","nombre":"Ciudad Autónoma de Buenos Aires","interseccion":0},"fuente":"IGN","categoria":"Comuna","centroide":{"lon":-58.46194806,"lat":-34.674566476}}},{"type":"Feature","geometry":{"type":"Polygon","coordinates":[[[-58.392898,-34.599655],[-58.410261,-34.598111],[-58.411885,-34.598021],[-58.414626,-34.608208],[-58.411746,-34.630373],[-58.391137,-34.627271],[-58.392898,-34.599655]]]},"properties":{"id":"02021","nombre":"Comuna 3","nombre_completo":"Comuna 3","provincia":{"id":"02","nombre":"Ciudad Autónoma de Buenos Aires","interseccion":0},"fuente":"IGN","categoria":"Comuna","centroide":{"lon":-58.402651451,"lat":-34.613843082}}},{"type":"Feature","geometry":{"type":"Polygon","coordinates":[[[-58.400094,-34.569368],[-58.43095,-34.551138],[-58.441128,-34.562153],[-58.439904,-34.578566],[-58.415967,-34.597873],[-58.400094,-34.569368]]]},"properties":{"id":"02098","nombre":"Comuna 14","nombre_completo":"Comuna 14","provincia":{"id":"02","nombre":"Ciudad Autónoma de Buenos Aires","interseccion":0},"fuente":"IGN","categoria":"Comuna","centroide":{"lon":-58.422294081,"lat":-34.573874741}}},{"type":"Feature","geometry":{"type":"Polygon","coordinates":[[[-57.209226,-36.196221],[-57.382452,-35.966739],[-57.362053,-35.750613],[-57.409583,-35.7431],[-57.402058,-35.757487],[-57.488967,-35.826301],[-57.512525,-35.824484],[-57.588031,-35.830725],[-57.707655,-35.832283],[-57.726066,-35.91978],[-57.983311,-36.028719],[-57.966803,-36.064632],[-58.093219,-36.154813],[-57.959721,-36.252922],[-57.971748,-36.263965],[-57.883506,-36.302138],[-57.645064,-36.107086],[-57.209226,-36.196221]]]},"properties":{"id":"06168","nombre":"Castelli","nombre_completo":"Partido de Castelli","provincia":{"id":"06","nombre":"Buenos Aires","interseccion":0},"fuente":"IGN","categoria":"Partido","centroide":{"lon":-57.657425194,"lat":-36.041489744}}},{"type":"Feature","geometry":{"type":"Polygon","coordinates":[[[-58.309779,-34.793387],[-58.447753,-34.825989],[-58.396445,-34.909881],[-58.292471,-34.854868],[-58.309779,-34.793387]]]},"properties":{"id":"06028","nombre":"Almirante Brown","nombre_completo":"Partido de Almirante Brown","provincia":{"id":"06","nombre":"Buenos Aires","interseccion":0},"fuente":"IGN","categoria":"Partido","centroide":{"lon":-58.367372933,"lat":-34.835619113}}},{"type":"Feature","geometry":{"type":"Polygon","coordinates":[[[-58.396445,-34.909881],[-58.413042,-34.873576],[-58.49186,-34.927632],[-58.463054,-34.951454],[-58.468702,-35.011275],[-58.37762,-34.950493],[-58.274607,-34.91706],[-58.396445,-34.909881]]]},"properties":{"id":"06648","nombre":"Presidente Perón","nombre_completo":"Partido de Presidente Perón","provincia":{"id":"06","nombre":"Buenos Aires","interseccion":0},"fuente":"IGN","categoria":"Partido","centroide":{"lon":-58.398084211,"lat":-34.929847841}}},{"type":"Feature","geometry":{"type":"Polygon","coordinates":[[[-58.177251,-35.057152],[-58.161419,-34.971845],[-58.338844,-35.148527],[-58.35271,-35.137863],[-58.446903,-35.214031],[-58.246816,-35.365325],[-58.18685,-35.382581],[-58.138618,-35.420373],[-58.044821,-35.334563],[-57.890143,-35.222141],[-57.968108,-35.159689],[-58.054086,-35.236827],[-58.018072,-35.168111],[-58.177251,-35.057152]]]},"properties":{"id":"06119","nombre":"Brandsen","nombre_completo":"Partido de Brandsen","provincia":{"id":"06","nombre":"Buenos Aires","interseccion":0},"fuente":"IGN","categoria":"Partido","centroide":{"lon":-58.175233904,"lat":-35.222519799}}},{"type":"Feature","geometry":{"type":"Polygon","coordinates":[[[-61.288021,-35.572824],[-61.53188,-35.378576],[-61.724739,-35.537384],[-61.502767,-35.745416],[-61.636117,-35.852744],[-61.560046,-35.942756],[-61.393404,-36.071812],[-61.269755,-36.071098],[-61.035297,-35.876663],[-61.101731,-35.824756],[-61.031898,-35.765554],[-61.288021,-35.572824]]]},"properties":{"id":"06147","nombre":"Carlos Casares","nombre_completo":"Partido de Carlos Casares","provincia":{"id":"06","nombre":"Buenos Aires","interseccion":0},"fuente":"IGN","categoria":"Partido","centroide":{"lon":-61.374377787,"lat":-35.749922214}}},{"type":"Feature","geometry":{"type":"Polygon","coordinates":[[[-60.849248,-34.763019],[-60.904151,-34.810719],[-61.048176,-34.692906],[-61.182368,-34.802214],[-61.127689,-34.847407],[-61.419742,-35.087908],[-61.300941,-35.185202],[-61.278178,-35.165851],[-61.155019,-35.264171],[-61.062511,-35.186779],[-60.984631,-35.2466],[-60.754227,-35.041402],[-60.847692,-34.968081],[-60.723956,-34.861231],[-60.849248,-34.763019]]]},"properties":{"id":"06385","nombre":"General Viamonte","nombre_completo":"Partido de General Viamonte","provincia":{"id":"06","nombre":"Buenos Aires","interseccion":0},"fuente":"IGN","categoria":"Partido","centroide":{"lon":-61.049657234,"lat":-34.997778891}}},{"type":"Feature","geometry":{"type":"Polygon","coordinates":[[[-62.285185,-35.163819],[-62.471445,-35.010657],[-62.548554,-35.073872],[-62.610627,-35.022719],[-62.68835,-35.085097],[-62.657181,-35.110819],[-62.707517,-35.101156],[-62.864144,-35.288502],[-62.777689,-35.408695],[-62.338553,-35.784075],[-62.098286,-35.591606],[-61.906309,-35.485611],[-62.225018,-35.214139],[-62.210043,-35.201858],[-62.224186,-35.189879],[-62.270612,-35.151768],[-62.285185,-35.163819]]]},"properties":{"id":"06154","nombre":"Carlos Tejedor","nombre_completo":"Partido de Carlos Tejedor","provincia":{"id":"06","nombre":"Buenos Aires","interseccion":0},"fuente":"IGN","categoria":"Partido","centroide":{"lon":-62.429789579,"lat":-35.379744937}}},{"type":"Feature","geometry":{"type":"Polygon","coordinates":[[[-62.431086,-35.858839],[-62.338416,-35.784199],[-62.623811,-35.550743],[-63.20373,-36.033076],[-62.625748,-36.50236],[-62.607583,-36.561423],[-62.082437,-36.152301],[-62.431086,-35.858839]]]},"properties":{"id":"06826","nombre":"Trenque Lauquen","nombre_completo":"Partido de Trenque Lauquen","provincia":{"id":"06","nombre":"Buenos Aires","interseccion":0},"fuente":"IGN","categoria":"Partido","centroide":{"lon":-62.635079783,"lat":-36.056766272}}},{"type":"Feature","geometry":{"type":"Polygon","coordinates":[[[-58.973941,-35.58998],[-59.003031,-35.594943],[-59.034365,-35.564892],[-59.025423,-35.580258],[-59.036087,-35.611699],[-59.080043,-35.60683],[-59.142533,-35.625372],[-59.142051,-35.665715],[-58.974425,-35.816928],[-58.749021,-35.98472],[-58.571854,-36.120966],[-58.342751,-35.843587],[-58.41355,-35.814737],[-58.453639,-35.769544],[-58.438388,-35.709143],[-58.465251,-35.685385],[-58.486944,-35.707434],[-58.501696,-35.753329],[-58.52453,-35.722479],[-58.716016,-35.721729],[-58.787997,-35.700971],[-58.907598,-35.594087],[-58.973941,-35.58998]]]},"properties":{"id":"06301","nombre":"General Belgrano","nombre_completo":"Partido de General Belgrano","provincia":{"id":"06","nombre":"Buenos Aires","interseccion":0},"fuente":"IGN","categoria":"Partido","centroide":{"lon":-58.698079969,"lat":-35.834662347}}},{"type":"Feature","geometry":{"type":"Polygon","coordinates":[[[-58.746748,-35.252702],[-58.925107,-35.341701],[-59.02541,-35.352275],[-59.105369,-35.426747],[-59.050381,-35.541627],[-58.973941,-35.58998],[-58.907598,-35.594087],[-58.787997,-35.700971],[-58.716016,-35.721729],[-58.52453,-35.722479],[-58.486524,-35.706937],[-58.568715,-35.595902],[-58.470486,-35.511942],[-58.663133,-35.354955],[-58.746748,-35.252702]]]},"properties":{"id":"06547","nombre":"Monte","nombre_completo":"Partido de Monte","provincia":{"id":"06","nombre":"Buenos Aires","interseccion":0},"fuente":"IGN","categoria":"Partido","centroide":{"lon":-58.767235838,"lat":-35.509826758}}},{"type":"Feature","geometry":{"type":"Polygon","coordinates":[[[-59.480334,-35.287301],[-59.506062,-35.289257],[-59.755477,-35.346744],[-59.825442,-35.407354],[-59.768671,-35.451043],[-59.775005,-35.478474],[-59.524477,-35.456402],[-59.349668,-35.529441],[-59.41261,-35.586127],[-59.174878,-35.712006],[-59.131081,-35.698178],[-59.143014,-35.625621],[-59.031524,-35.605593],[-59.026825,-35.575439],[-59.050381,-35.541627],[-59.105369,-35.426747],[-59.167243,-35.405904],[-59.26286,-35.390682],[-59.322525,-35.374677],[-59.393378,-35.290948],[-59.468508,-35.307371],[-59.480334,-35.287301]]]},"properties":{"id":"06693","nombre":"Roque Pérez","nombre_completo":"Partido de Roque Pérez","provincia":{"id":"06","nombre":"Buenos Aires","interseccion":0},"fuente":"IGN","categoria":"Partido","centroide":{"lon":-59.357511816,"lat":-35.481635701}}},{"type":"Feature","geometry":{"type":"Polygon","coordinates":[[[-60.532234,-36.412521],[-60.649975,-36.342881],[-60.87544,-36.467829],[-60.896234,-36.451336],[-61.423479,-36.864583],[-61.010956,-37.203526],[-60.814527,-37.051239],[-60.731738,-37.140234],[-60.437154,-37.376819],[-60.126382,-37.096824],[-60.001358,-36.835483],[-60.285566,-36.619947],[-60.532234,-36.412521]]]},"properties":{"id":"06595","nombre":"Olavarría","nombre_completo":"Partido de Olavarría","provincia":{"id":"06","nombre":"Buenos Aires","interseccion":0},"fuente":"IGN","categoria":"Partido","centroide":{"lon":-60.670205401,"lat":-36.857634046}}},{"type":"Feature","geometry":{"type":"Polygon","coordinates":[[[-58.636154,-34.715029],[-58.729025,-34.634784],[-58.757549,-34.660482],[-58.860294,-34.685206],[-58.750247,-34.777588],[-58.728396,-34.759307],[-58.703884,-34.778711],[-58.657915,-34.753297],[-58.636154,-34.715029]]]},"properties":{"id":"06539","nombre":"Merlo","nombre_completo":"Partido de Merlo","provincia":{"id":"06","nombre":"Buenos Aires","interseccion":0},"fuente":"IGN","categoria":"Partido","centroide":{"lon":-58.741958414,"lat":-34.711003278}}},{"type":"Feature","geometry":{"type":"Polygon","coordinates":[[[-58.500797,-34.722992],[-58.520507,-34.741056],[-58.502852,-34.854959],[-58.510333,-34.901681],[-58.49186,-34.927632],[-58.413042,-34.873576],[-58.447753,-34.825989],[-58.430528,-34.817248],[-58.500797,-34.722992]]]},"properties":{"id":"06260","nombre":"Esteban Echeverría","nombre_completo":"Partido de Esteban Echeverría","provincia":{"id":"06","nombre":"Buenos Aires","interseccion":0},"fuente":"IGN","categoria":"Partido","centroide":{"lon":-58.476947929,"lat":-34.831213566}}},{"type":"Feature","geometry":{"type":"Polygon","coordinates":[[[-59.67533,-34.404053],[-59.78158,-34.219316],[-59.873943,-34.264301],[-59.895237,-34.236438],[-60.06503,-34.382654],[-60.08409,-34.367516],[-60.083631,-34.469779],[-59.884567,-34.61943],[-59.768409,-34.507296],[-59.767615,-34.452814],[-59.67533,-34.404053]]]},"properties":{"id":"06161","nombre":"Carmen de Areco","nombre_completo":"Partido de Carmen de Areco","provincia":{"id":"06","nombre":"Buenos Aires","interseccion":0},"fuente":"IGN","categoria":"Partido","centroide":{"lon":-59.884413488,"lat":-34.406797788}}},{"type":"Feature","geometry":{"type":"Polygon","coordinates":[[[-59.262446,-34.620116],[-59.338524,-34.508458],[-59.523664,-34.596894],[-59.63243,-34.615017],[-59.672959,-34.582629],[-59.71641,-34.620022],[-59.522594,-34.828793],[-59.496825,-34.849386],[-59.466512,-34.87259],[-59.408729,-34.842423],[-59.204517,-34.796227],[-59.255899,-34.685583],[-59.262446,-34.620116]]]},"properties":{"id":"06532","nombre":"Mercedes","nombre_completo":"Partido de Mercedes","provincia":{"id":"06","nombre":"Buenos Aires","interseccion":0},"fuente":"IGN","categoria":"Partido","centroide":{"lon":-59.420481139,"lat":-34.697321326}}},{"type":"Feature","geometry":{"type":"Polygon","coordinates":[[[-58.616028,-34.588705],[-58.693934,-34.593742],[-58.653486,-34.631612],[-58.616028,-34.588705]]]},"properties":{"id":"06408","nombre":"Hurlingham","nombre_completo":"Partido de Hurlingham","provincia":{"id":"06","nombre":"Buenos Aires","interseccion":0},"fuente":"IGN","categoria":"Partido","centroide":{"lon":-58.649525387,"lat":-34.599283055}}},{"type":"Feature","geometry":{"type":"Polygon","coordinates":[[[-58.616028,-34.588705],[-58.653486,-34.631612],[-58.667381,-34.685988],[-58.581876,-34.64317],[-58.616028,-34.588705]]]},"properties":{"id":"06568","nombre":"Morón","nombre_completo":"Partido de Morón","provincia":{"id":"06","nombre":"Buenos Aires","interseccion":0},"fuente":"IGN","categoria":"Partido","centroide":{"lon":-58.619831711,"lat":-34.649386163}}},{"type":"Feature","geometry":{"type":"Polygon","coordinates":[[[-58.646591,-34.501384],[-58.705563,-34.439311],[-58.784541,-34.476066],[-58.701269,-34.532748],[-58.646591,-34.501384]]]},"properties":{"id":"06515","nombre":"Malvinas Argentinas","nombre_completo":"Partido de Malvinas Argentinas","provincia":{"id":"06","nombre":"Buenos Aires","interseccion":0},"fuente":"IGN","categoria":"Partido","centroide":{"lon":-58.712137242,"lat":-34.487311344}}},{"type":"Feature","geometry":{"type":"Polygon","coordinates":[[[-62.625748,-36.50236],[-62.978901,-36.280138],[-63.048637,-36.415414],[-63.127556,-36.479504],[-62.816036,-36.731947],[-62.607583,-36.561423],[-62.625748,-36.50236]]]},"properties":{"id":"06847","nombre":"Tres Lomas","nombre_completo":"Partido de Tres Lomas","provincia":{"id":"06","nombre":"Buenos Aires","interseccion":0},"fuente":"IGN","categoria":"Partido","centroide":{"lon":-62.863907773,"lat":-36.497100216}}},{"type":"Feature","geometry":{"type":"Polygon","coordinates":[[[-58.553764,-34.530205],[-58.600303,-34.490354],[-58.562314,-34.591405],[-58.522972,-34.597563],[-58.50996,-34.569205],[-58.553764,-34.530205]]]},"properties":{"id":"06371","nombre":"General San Martín","nombre_completo":"Partido General San Martín","provincia":{"id":"06","nombre":"Buenos Aires","interseccion":0},"fuente":"IGN","categoria":"Partido","centroide":{"lon":-58.564282176,"lat":-34.552771918}}},{"type":"Feature","geometry":{"type":"Polygon","coordinates":[[[-61.204736,-34.702486],[-61.246724,-34.668183],[-61.338484,-34.592169],[-61.436411,-34.671162],[-61.516405,-34.603201],[-61.644585,-34.683654],[-61.772899,-34.676405],[-61.673472,-34.760952],[-61.902716,-34.952754],[-61.9832,-34.886031],[-62.185372,-35.0507],[-62.166223,-35.067128],[-62.270612,-35.151768],[-62.210043,-35.201858],[-62.225018,-35.214139],[-61.783275,-35.585449],[-61.300941,-35.185202],[-61.419742,-35.087908],[-61.127689,-34.847407],[-61.182368,-34.802214],[-61.151165,-34.777206],[-61.222551,-34.717368],[-61.204736,-34.702486]]]},"properties":{"id":"06469","nombre":"Lincoln","nombre_completo":"Partido de Lincoln","provincia":{"id":"06","nombre":"Buenos Aires","interseccion":0},"fuente":"IGN","categoria":"Partido","centroide":{"lon":-61.682458385,"lat":-35.07044797}}},{"type":"Feature","geometry":{"type":"Polygon","coordinates":[[[-60.471735,-37.349229],[-60.731738,-37.140234],[-60.814527,-37.051239],[-61.010956,-37.203526],[-60.891327,-37.302355],[-60.975452,-37.36813],[-60.878539,-37.451456],[-61.178034,-37.680843],[-60.851948,-37.940792],[-60.556671,-37.720854],[-60.58083,-37.700807],[-60.452736,-37.601036],[-60.46588,-37.590272],[-60.349195,-37.496044],[-60.471735,-37.349229]]]},"properties":{"id":"06448","nombre":"Laprida","nombre_completo":"Partido de Laprida","provincia":{"id":"06","nombre":"Buenos Aires","interseccion":0},"fuente":"IGN","categoria":"Partido","centroide":{"lon":-60.768148181,"lat":-37.516505585}}},{"type":"Feature","geometry":{"type":"Polygon","coordinates":[[[-58.553764,-34.530205],[-58.514155,-34.443526],[-58.600303,-34.490354],[-58.553764,-34.530205]]]},"properties":{"id":"06756","nombre":"San Isidro","nombre_completo":"Partido de San Isidro","provincia":{"id":"06","nombre":"Buenos Aires","interseccion":0},"fuente":"IGN","categoria":"Partido","centroide":{"lon":-58.537209077,"lat":-34.486892954}}},{"type":"Feature","geometry":{"type":"Polygon","coordinates":[[[-59.986742,-37.339941],[-60.200584,-37.178043],[-60.437154,-37.376819],[-60.471735,-37.349229],[-60.349195,-37.496044],[-60.46588,-37.590272],[-60.378022,-37.662685],[-60.424207,-37.697668],[-60.323435,-37.776369],[-60.261959,-37.728752],[-60.018164,-37.860745],[-59.936614,-37.794446],[-59.673675,-37.979546],[-59.383349,-37.758604],[-59.225977,-37.650843],[-59.779743,-37.238388],[-59.811552,-37.256322],[-59.826494,-37.31093],[-59.953258,-37.447512],[-59.986742,-37.339941]]]},"properties":{"id":"06084","nombre":"Benito Juárez","nombre_completo":"Partido de Benito Juárez","provincia":{"id":"06","nombre":"Buenos Aires","interseccion":0},"fuente":"IGN","categoria":"Partido","centroide":{"lon":-59.888397841,"lat":-37.586110706}}},{"type":"Feature","geometry":{"type":"Polygon","coordinates":[[[-61.062694,-34.039381],[-60.942796,-33.85686],[-60.810809,-33.674801],[-60.910431,-33.580894],[-60.934033,-33.654727],[-61.331409,-34.025678],[-61.209891,-34.125642],[-61.175017,-34.095284],[-61.062694,-34.039381]]]},"properties":{"id":"06175","nombre":"Colón","nombre_completo":"Partido de Colón","provincia":{"id":"06","nombre":"Buenos Aires","interseccion":0},"fuente":"IGN","categoria":"Partido","centroide":{"lon":-61.062483729,"lat":-33.885864544}}},{"type":"Feature","geometry":{"type":"Polygon","coordinates":[[[-58.653486,-34.631612],[-58.693934,-34.593742],[-58.729025,-34.634784],[-58.667381,-34.685988],[-58.653486,-34.631612]]]},"properties":{"id":"06410","nombre":"Ituzaingó","nombre_completo":"Partido de Ituzaingó","provincia":{"id":"06","nombre":"Buenos Aires","interseccion":0},"fuente":"IGN","categoria":"Partido","centroide":{"lon":-58.688759516,"lat":-34.636071612}}},{"type":"Feature","geometry":{"type":"Polygon","coordinates":[[[-58.267461,-34.773646],[-58.298454,-34.783439],[-58.304114,-34.801165],[-58.309779,-34.793387],[-58.292471,-34.854868],[-58.274607,-34.91706],[-58.316317,-34.926331],[-58.288205,-34.965044],[-58.300786,-34.971682],[-58.277172,-35.009418],[-58.211085,-34.951783],[-58.247414,-34.923592],[-58.179871,-34.866004],[-58.267461,-34.773646]]]},"properties":{"id":"06274","nombre":"Florencio Varela","nombre_completo":"Partido de Florencio Varela","provincia":{"id":"06","nombre":"Buenos Aires","interseccion":0},"fuente":"IGN","categoria":"Partido","centroide":{"lon":-58.258554886,"lat":-34.877744824}}},{"type":"Feature","geometry":{"type":"Polygon","coordinates":[[[-58.316317,-34.926331],[-58.394616,-34.958878],[-58.408331,-34.97787],[-58.430381,-34.978061],[-58.468702,-35.011275],[-58.463054,-34.951454],[-58.55317,-34.976277],[-58.600439,-35.052424],[-58.577919,-35.151662],[-58.46797,-35.238425],[-58.414816,-35.185434],[-58.35271,-35.137863],[-58.338844,-35.148527],[-58.288398,-35.017265],[-58.277172,-35.009418],[-58.300786,-34.971682],[-58.288205,-34.965044],[-58.316317,-34.926331]]]},"properties":{"id":"06778","nombre":"San Vicente","nombre_completo":"Partido de San Vicente","provincia":{"id":"06","nombre":"Buenos Aires","interseccion":0},"fuente":"IGN","categoria":"Partido","centroide":{"lon":-58.43181206,"lat":-35.071508717}}},{"type":"Feature","geometry":{"type":"Polygon","coordinates":[[[-58.354633,-37.439849],[-58.427186,-37.500668],[-58.577112,-37.383977],[-58.809127,-37.578725],[-58.507343,-37.805742],[-58.591233,-37.877994],[-58.255909,-38.130861],[-57.733569,-37.697775],[-58.16358,-37.38824],[-58.282658,-37.492092],[-58.354633,-37.439849]]]},"properties":{"id":"06063","nombre":"Balcarce","nombre_completo":"Partido de Balcarce","provincia":{"id":"06","nombre":"Buenos Aires","interseccion":0},"fuente":"IGN","categoria":"Partido","centroide":{"lon":-58.271747562,"lat":-37.714619808}}},{"type":"Feature","geometry":{"type":"Polygon","coordinates":[[[-61.436136,-36.039237],[-61.491487,-36.019098],[-61.921176,-36.288428],[-61.974442,-36.333632],[-62.014961,-36.300641],[-62.048248,-36.325905],[-61.763409,-36.524946],[-61.406099,-36.240961],[-61.439692,-36.214419],[-61.269755,-36.071098],[-61.393404,-36.071812],[-61.436136,-36.039237]]]},"properties":{"id":"06406","nombre":"Hipólito Yrigoyen","nombre_completo":"Partido de Hipólito Yrigoyen","provincia":{"id":"06","nombre":"Buenos Aires","interseccion":0},"fuente":"IGN","categoria":"Partido","centroide":{"lon":-61.660187626,"lat":-36.259189021}}},{"type":"Feature","geometry":{"type":"Polygon","coordinates":[[[-57.417854,-36.157623],[-57.645064,-36.107086],[-57.883506,-36.302138],[-57.971748,-36.263965],[-57.775461,-36.437637],[-57.848529,-36.555173],[-57.776365,-36.634535],[-57.653985,-36.728099],[-57.49374,-36.581361],[-57.464357,-36.570926],[-57.342985,-36.366172],[-57.473263,-36.340341],[-57.417854,-36.157623]]]},"properties":{"id":"06238","nombre":"Dolores","nombre_completo":"Partido de Dolores","provincia":{"id":"06","nombre":"Buenos Aires","interseccion":0},"fuente":"IGN","categoria":"Partido","centroide":{"lon":-57.631926124,"lat":-36.398937673}}},{"type":"Feature","geometry":{"type":"Polygon","coordinates":[[[-61.471675,-34.307407],[-61.549084,-34.303386],[-61.648388,-34.319473],[-61.719753,-34.385555],[-61.81615,-34.385601],[-61.983941,-34.518249],[-61.84537,-34.637413],[-61.769608,-34.576422],[-61.644585,-34.683654],[-61.516405,-34.603201],[-61.436411,-34.671162],[-61.275199,-34.541214],[-61.355509,-34.473947],[-61.329167,-34.453145],[-61.395408,-34.373502],[-61.471675,-34.307407]]]},"properties":{"id":"06462","nombre":"Leandro N. Alem","nombre_completo":"Partido de Leandro N. Alem","provincia":{"id":"06","nombre":"Buenos Aires","interseccion":0},"fuente":"IGN","categoria":"Partido","centroide":{"lon":-61.612587474,"lat":-34.49856528}}},{"type":"Feature","geometry":{"type":"Polygon","coordinates":[[[-62.964607,-35.311894],[-63.115413,-35.188868],[-63.139051,-35.128403],[-63.235514,-35.208572],[-63.211173,-35.22897],[-63.347169,-35.300041],[-63.329475,-35.323156],[-63.385707,-35.369724],[-63.385471,-35.883677],[-63.20373,-36.033076],[-62.623811,-35.550743],[-62.777689,-35.408695],[-62.864144,-35.288502],[-62.964607,-35.311894]]]},"properties":{"id":"06679","nombre":"Rivadavia","nombre_completo":"Partido de Rivadavia","provincia":{"id":"06","nombre":"Buenos Aires","interseccion":0},"fuente":"IGN","categoria":"Partido","centroide":{"lon":-63.094761685,"lat":-35.581056986}}},{"type":"Feature","geometry":{"type":"Polygon","coordinates":[[[-62.789667,-41.024164],[-62.310693,-40.869816],[-62.17454,-40.637533],[-62.489403,-40.317686],[-62.33889,-40.186875],[-62.316131,-39.864953],[-62.166528,-39.830179],[-62.370786,-39.775662],[-62.375086,-39.764014],[-62.616835,-39.548087],[-62.69157,-39.53479],[-63.013383,-39.503276],[-63.383269,-39.328492],[-63.379348,-40.710371],[-62.957589,-40.81811],[-62.789667,-41.024164]]]},"properties":{"id":"06602","nombre":"Patagones","nombre_completo":"Partido de Patagones","provincia":{"id":"06","nombre":"Buenos Aires","interseccion":0},"fuente":"IGN","categoria":"Partido","centroide":{"lon":-62.850802363,"lat":-40.196383308}}},{"type":"Feature","geometry":{"type":"Polygon","coordinates":[[[-58.506782,-34.63583],[-58.519216,-34.633028],[-58.530367,-34.634814],[-58.529205,-34.654751],[-58.50262,-34.674594],[-58.464394,-34.660066],[-58.460366,-34.656824],[-58.466998,-34.651486],[-58.462963,-34.646188],[-58.469206,-34.641414],[-58.471267,-34.636673],[-58.476036,-34.638952],[-58.478509,-34.637012],[-58.502262,-34.645836],[-58.506782,-34.63583]]]},"properties":{"id":"02063","nombre":"Comuna 9","nombre_completo":"Comuna 9","provincia":{"id":"02","nombre":"Ciudad Autónoma de Buenos Aires","interseccion":0},"fuente":"IGN","categoria":"Comuna","centroide":{"lon":-58.499175174,"lat":-34.651788797}}},{"type":"Feature","geometry":{"type":"Polygon","coordinates":[[[-61.728495,-38.657088],[-61.742365,-38.627211],[-61.818412,-38.687872],[-61.847934,-38.665363],[-61.925669,-38.731246],[-62.061985,-38.712333],[-62.181919,-38.817287],[-62.073409,-38.925111],[-61.45573,-38.995401],[-61.698761,-38.781423],[-61.715451,-38.714322],[-61.728495,-38.657088]]]},"properties":{"id":"06182","nombre":"Coronel de Marina Leonardo Rosales","nombre_completo":"Partido de Coronel de Marina Leonardo Rosales","provincia":{"id":"06","nombre":"Buenos Aires","interseccion":0},"fuente":"IGN","categoria":"Partido","centroide":{"lon":-61.83558442,"lat":-38.849077328}}},{"type":"Feature","geometry":{"type":"Polygon","coordinates":[[[-59.240136,-33.896258],[-59.302739,-33.852853],[-59.289171,-33.82628],[-59.22272,-33.813425],[-59.254822,-33.793884],[-59.239807,-33.730103],[-59.393678,-33.736573],[-59.456482,-33.719177],[-59.475708,-33.658386],[-59.496304,-33.646053],[-59.562577,-33.759372],[-59.510109,-33.778837],[-59.653019,-33.917206],[-59.754392,-34.013563],[-59.707232,-34.09359],[-59.722274,-34.13107],[-59.562088,-34.167967],[-59.406464,-34.06095],[-59.341038,-34.042568],[-59.319635,-34.023797],[-59.345587,-33.952398],[-59.340883,-33.92538],[-59.260541,-33.941577],[-59.240136,-33.896258]]]},"properties":{"id":"06070","nombre":"Baradero","nombre_completo":"Partido de Baradero","provincia":{"id":"06","nombre":"Buenos Aires","interseccion":0},"fuente":"IGN","categoria":"Partido","centroide":{"lon":-59.492787138,"lat":-33.931961377}}},{"type":"Feature","geometry":{"type":"Polygon","coordinates":[[[-59.562577,-33.759372],[-59.489098,-33.643329],[-59.529764,-33.633392],[-59.612778,-33.695168],[-59.65891,-33.620037],[-59.726635,-33.603886],[-59.778388,-33.606682],[-59.827921,-33.581359],[-60.041144,-33.768819],[-60.072709,-33.778856],[-59.779343,-34.013386],[-59.653019,-33.917206],[-59.510109,-33.778837],[-59.562577,-33.759372]]]},"properties":{"id":"06770","nombre":"San Pedro","nombre_completo":"Partido de San Pedro","provincia":{"id":"06","nombre":"Buenos Aires","interseccion":0},"fuente":"IGN","categoria":"Partido","centroide":{"lon":-59.782626011,"lat":-33.78098602}}},{"type":"Feature","geometry":{"type":"Polygon","coordinates":[[[-62.188183,-34.682722],[-62.36867,-34.650056],[-62.584849,-34.61069],[-62.642162,-34.996989],[-62.548554,-35.073872],[-62.471445,-35.010657],[-62.285185,-35.163819],[-62.166223,-35.067128],[-62.185372,-35.0507],[-62.104559,-34.984689],[-62.305054,-34.812823],[-62.188183,-34.682722]]]},"properties":{"id":"06277","nombre":"Florentino Ameghino","nombre_completo":"Partido de Florentino Ameghino","provincia":{"id":"06","nombre":"Buenos Aires","interseccion":0},"fuente":"IGN","categoria":"Partido","centroide":{"lon":-62.401716265,"lat":-34.874105806}}},{"type":"Feature","geometry":{"type":"Polygon","coordinates":[[[-58.333505,-34.726984],[-58.408451,-34.660135],[-58.446915,-34.688777],[-58.333505,-34.726984]]]},"properties":{"id":"06434","nombre":"Lanús","nombre_completo":"Partido de Lanús","provincia":{"id":"06","nombre":"Buenos Aires","interseccion":0},"fuente":"IGN","categoria":"Partido","centroide":{"lon":-58.394696505,"lat":-34.705654244}}},{"type":"Feature","geometry":{"type":"Polygon","coordinates":[[[-58.346962,-34.739344],[-58.446915,-34.688777],[-58.483902,-34.732136],[-58.500797,-34.722992],[-58.430528,-34.817248],[-58.346962,-34.739344]]]},"properties":{"id":"06490","nombre":"Lomas de Zamora","nombre_completo":"Partido de Lomas de Zamora","provincia":{"id":"06","nombre":"Buenos Aires","interseccion":0},"fuente":"IGN","categoria":"Partido","centroide":{"lon":-58.42409543,"lat":-34.754967955}}},{"type":"Feature","geometry":{"type":"Polygon","coordinates":[[[-58.279639,-34.678642],[-58.338381,-34.633576],[-58.406505,-34.663512],[-58.333505,-34.726984],[-58.279639,-34.678642]]]},"properties":{"id":"06035","nombre":"Avellaneda","nombre_completo":"Partido de Avellaneda","provincia":{"id":"06","nombre":"Buenos Aires","interseccion":0},"fuente":"IGN","categoria":"Partido","centroide":{"lon":-58.341144545,"lat":-34.678199308}}},{"type":"Feature","geometry":{"type":"Polygon","coordinates":[[[-58.46019,-34.578314],[-58.503507,-34.594469],[-58.476356,-34.600218],[-58.468877,-34.601879],[-58.446213,-34.607634],[-58.46019,-34.578314]]]},"properties":{"id":"02105","nombre":"Comuna 15","nombre_completo":"Comuna 15","provincia":{"id":"02","nombre":"Ciudad Autónoma de Buenos Aires","interseccion":0},"fuente":"IGN","categoria":"Comuna","centroide":{"lon":-58.462774022,"lat":-34.59188367}}},{"type":"Feature","geometry":{"type":"Polygon","coordinates":[[[-57.974604,-34.872367],[-57.996665,-34.875349],[-58.083632,-34.835145],[-58.288398,-35.017265],[-58.161419,-34.971845],[-58.177251,-35.057152],[-58.018072,-35.168111],[-58.054086,-35.236827],[-57.752355,-34.970663],[-57.895903,-34.930436],[-57.974604,-34.872367]]]},"properties":{"id":"06441","nombre":"La Plata","nombre_completo":"Partido de La Plata","provincia":{"id":"06","nombre":"Buenos Aires","interseccion":0},"fuente":"IGN","categoria":"Partido","centroide":{"lon":-58.017777789,"lat":-35.003847016}}}],"type":"FeatureCollection"}