{"type":"FeatureCollection", "features": [
{"type":"Feature","geometry":{"type":"Polygon","coordinates":[[[-58.343101,-34.630238],[-58.50077,-34.54946],[-58.52888,-34.654627],[-58.423795,-34.662247],[-58.374052,-34.657194],[-58.343101,-34.630238]]]},"properties":{"id":"02","nombre":"Ciudad Autónoma de Buenos Aires","nombre_completo":"Ciudad Autónoma de Buenos Aires","fuente":"IGN","categoria":"Ciudad Autónoma","centroide":{"lon":-58.445876325,"lat":-34.614442065},"iso_id":"AR-C","iso_nombre":"Ciudad Autónoma de Buenos Aires"}},
{"type":"Feature","geometry":{"type":"Polygon","coordinates":[[[-70.394986,-36.194329],[-70.397378,-36.119489],[-70.576427,-36.138048],[-70.712979,-36.427768],[-70.883775,-36.396241],[-70.893884,-36.471272],[-71.036917,-36.475546],[-71.009206,-36.691237],[-71.113255,-36.679445],[-71.180011,-36.841421],[-71.088013,-36.938019],[-71.222396,-36.978246],[-71.092291,-37.114654],[-71.221042,-37.275106],[-71.11818,-37.468945],[-71.182994,-37.85843],[-70.98799,-38.087752],[-70.984018,-38.430662],[-70.826411,-38.591353],[-70.92673,-38.763197],[-71.093818,-38.754878],[-71.433604,-38.928944],[-71.374093,-39.283159],[-71.534381,-39.530408],[-71.461119,-39.582861],[-71.502409,-39.637797],[-71.698683,-39.587356],[-71.69154,-39.841421],[-71.592685,-39.911381],[-71.673568,-40.103725],[-71.831132,-40.105735],[-71.656824,-40.363796],[-71.824957,-40.421898],[-71.965046,-40.727576],[-71.861077,-41.031024],[-71.141648,-41.055976],[-71.032023,-40.933145],[-71.120791,-40.75822],[-70.976501,-40.648682],[-70.54248,-40.503601],[-70.170569,-40.483009],[-69.950278,-40.178985],[-69.931754,-39.943583],[-69.506997,-39.815423],[-69.2771,-39.596375],[-68.999878,-39.515198],[-68.561736,-39.076485],[-68.023978,-38.976428],[-67.998088,-38.995764],[-68.256278,-38.679548],[-68.254253,-37.571931],[-68.354952,-37.547228],[-68.766087,-37.366485],[-69.026041,-37.364793],[-69.064131,-37.223647],[-69.268318,-37.144501],[-69.529573,-37.174436],[-69.711541,-37.101483],[-69.759652,-36.87152],[-70.12257,-36.571048],[-70.225354,-36.32712],[-70.266651,-36.322405],[-70.303406,-36.340558],[-70.343923,-36.333333],[-70.372183,-36.280165],[-70.370616,-36.223792],[-70.394986,-36.194329]]]},"properties":{"id":"58","nombre":"Neuquén","nombre_completo":"Provincia del Neuquén","fuente":"IGN","categoria":"Provincia","centroide":{"lon":-70.119897224,"lat":-38.641982863},"iso_id":"AR-Q","iso_nombre":"Neuquén"}},
{"type":"Feature","geometry":{"type":"Polygon","coordinates":[[[-67.00593,-31.855355],[-67.136729,-31.833805],[-67.379244,-31.868116],[-67.365234,-31.975901],[-67.37039,-32.246281],[-67.263799,-32.381859],[-67.310131,-32.424741],[-67.166335,-32.758716],[-67.23235,-32.884999],[-67.152606,-33.412153],[-67.095979,-33.503497],[-66.873256,-33.832946],[-66.675863,-33.941621],[-66.663207,-33.98628],[-66.81189,-34.345104],[-66.477995,-35.14187],[-66.589446,-35.794422],[-66.622241,-35.848357],[-66.618112,-35.903025],[-66.628867,-35.928595],[-66.618706,-35.965267],[-66.637848,-36.000593],[-65.107809,-35.999062],[-65.109226,-33.950569],[-65.142999,-33.194775],[-64.963062,-32.863255],[-64.944619,-32.767336],[-64.883229,-32.572577],[-64.919151,-32.483788],[-64.929844,-32.42325],[-64.97718,-32.321351],[-65.212045,-32.326736],[-65.245829,-32.089015],[-65.628041,-31.898627],[-65.979026,-31.889163],[-66.34944,-31.998398],[-66.568819,-31.949813],[-66.604538,-31.923379],[-66.885696,-31.897693],[-67.00593,-31.855355]]]},"properties":{"id":"74","nombre":"San Luis","nombre_completo":"Provincia de San Luis","fuente":"IGN","categoria":"Provincia","centroide":{"lon":-66.025231271,"lat":-33.761103538},"iso_id":"AR-D","iso_nombre":"San Luis"}},
{"type":"Feature","geometry":{"type":"Polygon","coordinates":[[[-58.884005,-28.000001],[-61.712045,-27.998552],[-62.130653,-30.480433],[-61.842175,-30.744316],[-62.123495,-31.605408],[-62.241683,-31.699677],[-62.19678,-32.11477],[-61.914512,-32.494664],[-61.946626,-32.678481],[-61.795699,-32.773966],[-61.787668,-33.006202],[-61.923249,-33.119581],[-62.883909,-34.38655],[-61.719753,-34.385555],[-60.934033,-33.654727],[-60.818249,-33.540293],[-60.556949,-33.646598],[-60.45738,-33.58236],[-60.272714,-33.263863],[-60.297829,-33.242284],[-60.392055,-33.188984],[-60.620246,-32.947945],[-60.776184,-32.507019],[-60.700382,-32.149769],[-60.675781,-31.811707],[-60.46759,-31.698303],[-60.143494,-31.443604],[-60.105591,-31.289917],[-59.963379,-31.119873],[-59.818176,-30.942505],[-59.699394,-30.769072],[-59.678406,-30.646912],[-59.703439,-30.44261],[-59.693453,-30.313123],[-59.56639,-30.008076],[-59.659665,-29.843179],[-59.604283,-29.394743],[-59.199715,-29.031545],[-59.048857,-28.493311],[-59.062413,-28.128109],[-58.945113,-28.133774],[-58.880822,-28.066825],[-58.884005,-28.000001]]]},"properties":{"id":"82","nombre":"Santa Fe","nombre_completo":"Provincia de Santa Fe","fuente":"IGN","categoria":"Provincia","centroide":{"lon":-60.950687277,"lat":-30.708822709},"iso_id":"AR-S","iso_nombre":"Santa Fe"}},
{"type":"Feature","geometry":{"type":"Polygon","coordinates":[[[-68.440281,-27.873656],[-68.539147,-27.785378],[-68.545326,-27.707115],[-68.582699,-27.819863],[-68.799011,-27.755676],[-69.094952,-27.796575],[-69.605713,-28.419006],[-69.555237,-28.405822],[-69.469602,-28.415027],[-69.316172,-28.411606],[-69.161971,-28.761135],[-68.908706,-28.85932],[-69.015965,-29.650039],[-68.884353,-29.592581],[-68.441284,-29.650513],[-67.590873,-30.298148],[-67.494802,-30.536332],[-67.08207,-30.916096],[-67.101229,-31.382986],[-66.951966,-31.633298],[-66.868184,-31.633298],[-66.804321,-31.808777],[-66.722667,-31.883821],[-66.661788,-31.920536],[-66.604538,-31.923379],[-66.568819,-31.949813],[-66.34944,-31.998398],[-65.979026,-31.889163],[-65.770397,-31.889004],[-65.77146,-31.044159],[-65.422985,-30.119602],[-65.74834,-29.269686],[-66.099724,-28.944417],[-66.400154,-28.860726],[-66.351513,-28.720946],[-66.496217,-28.622294],[-66.57081,-28.288634],[-67.016245,-28.254251],[-67.155443,-28.384407],[-67.691464,-28.311834],[-67.813209,-28.37168],[-67.841568,-28.316529],[-67.914375,-28.1137],[-68.107311,-28.173463],[-68.396618,-28.004169],[-68.442422,-28.024276],[-68.46122,-28.002861],[-68.440281,-27.873656]]]},"properties":{"id":"46","nombre":"La Rioja","nombre_completo":"Provincia de La Rioja","fuente":"IGN","categoria":"Provincia","centroide":{"lon":-67.181757581,"lat":-29.684937278},"iso_id":"AR-F","iso_nombre":"La Rioja"}},
{"type":"Feature","geometry":{"type":"Polygon","coordinates":[[[-67.864601,-25.2384],[-68.505365,-25.16851],[-68.509335,-25.231667],[-68.548503,-25.26219],[-68.523866,-25.378917],[-68.589169,-25.448806],[-68.381433,-26.177834],[-68.558355,-26.287369],[-68.588092,-26.492428],[-68.262427,-26.918846],[-68.294783,-27.03904],[-68.483904,-27.058254],[-68.574962,-27.177552],[-68.670533,-27.099018],[-68.842878,-27.160109],[-68.808436,-27.300833],[-68.980318,-27.431906],[-68.942515,-27.525931],[-69.094952,-27.796575],[-68.799011,-27.755676],[-68.582699,-27.819863],[-68.545326,-27.707115],[-68.539147,-27.785378],[-68.440281,-27.873656],[-68.456699,-28.015591],[-68.440002,-28.025391],[-68.396618,-28.004169],[-68.107311,-28.173463],[-67.914375,-28.1137],[-67.841568,-28.316529],[-67.813209,-28.37168],[-67.691464,-28.311834],[-67.155443,-28.384407],[-67.016245,-28.254251],[-66.57081,-28.288634],[-66.496217,-28.622294],[-66.351513,-28.720946],[-66.400154,-28.860726],[-66.099724,-28.944417],[-65.74834,-29.269686],[-65.422985,-30.119602],[-65.15827,-30.047267],[-64.937932,-29.847511],[-64.964052,-29.596091],[-64.824628,-29.574305],[-64.785969,-29.405497],[-64.837596,-29.228569],[-64.901128,-28.841312],[-65.170609,-28.618386],[-65.184617,-28.60057],[-65.097089,-28.470938],[-65.112391,-28.186654],[-65.170798,-27.946465],[-65.365788,-27.845841],[-65.500113,-27.92414],[-65.56847,-28.013186],[-65.612599,-27.991293],[-65.753235,-27.76997],[-65.794649,-27.807098],[-65.832258,-27.850921],[-65.915396,-27.66914],[-65.971974,-27.332926],[-66.139582,-27.261828],[-65.85779,-26.929196],[-65.830161,-26.744222],[-66.04219,-26.600372],[-66.17124,-26.631212],[-66.163891,-26.501811],[-66.154844,-26.443666],[-66.11913,-26.376967],[-66.094091,-26.248591],[-66.099225,-26.216568],[-66.170524,-26.133993],[-66.216175,-26.139473],[-66.292958,-26.229306],[-66.382024,-26.416799],[-66.539877,-26.353162],[-66.659349,-26.107205],[-66.757273,-26.050133],[-66.847566,-25.796268],[-66.873566,-25.766185],[-66.801734,-25.698806],[-66.648577,-25.712032],[-66.563902,-25.621762],[-66.558191,-25.300654],[-67.864601,-25.2384]]]},"properties":{"id":"10","nombre":"Catamarca","nombre_completo":"Provincia de Catamarca","fuente":"IGN","categoria":"Provincia","centroide":{"lon":-66.947897245,"lat":-27.335953796},"iso_id":"AR-K","iso_nombre":"Catamarca"}},
{"type":"Feature","geometry":{"type":"Polygon","coordinates":[[[-65.297906,-26.081736],[-65.424556,-26.109015],[-65.688515,-26.117262],[-65.722753,-26.2798],[-65.72303,-26.312712],[-65.711451,-26.328698],[-65.717759,-26.352467],[-66.040109,-26.250901],[-66.099757,-26.220486],[-66.094091,-26.248591],[-66.11913,-26.376967],[-66.154844,-26.443666],[-66.163891,-26.501811],[-66.17124,-26.631212],[-66.04219,-26.600372],[-65.830161,-26.744222],[-65.85779,-26.929196],[-66.139582,-27.261828],[-65.971974,-27.332926],[-65.915396,-27.66914],[-65.832258,-27.850921],[-65.794649,-27.807098],[-65.753235,-27.76997],[-65.612599,-27.991293],[-65.370884,-27.846145],[-65.170798,-27.946465],[-65.178132,-27.916417],[-65.039037,-27.879261],[-64.974365,-27.350918],[-64.854259,-27.318301],[-64.707391,-26.82004],[-64.617889,-26.802693],[-64.58702,-26.657929],[-64.498582,-26.67359],[-64.481788,-26.307587],[-64.564152,-26.226925],[-64.579581,-26.218181],[-64.732152,-26.241556],[-65.039509,-26.290334],[-65.297906,-26.081736]]]},"properties":{"id":"90","nombre":"Tucumán","nombre_completo":"Provincia de Tucumán","fuente":"IGN","categoria":"Provincia","centroide":{"lon":-65.36476558,"lat":-26.948283502},"iso_id":"AR-T","iso_nombre":"Tucumán"}},
{"type":"Feature","geometry":{"type":"Polygon","coordinates":[[[-58.443824,-26.83206],[-58.985715,-26.379999],[-59.140226,-26.299443],[-59.357506,-26.33797],[-59.438301,-26.149132],[-59.660456,-26.143402],[-59.671168,-26.003304],[-59.97971,-25.723011],[-60.176985,-25.659696],[-60.354294,-25.322742],[-60.940093,-25.004408],[-61.230062,-24.635205],[-61.453956,-24.612175],[-61.761514,-24.306725],[-62.342157,-24.110249],[-62.342352,-24.392113],[-63.422412,-25.64922],[-61.711816,-25.654744],[-61.712045,-27.998552],[-58.884005,-28.000001],[-58.880822,-28.066825],[-58.857739,-28.011612],[-58.829262,-27.961873],[-58.809708,-27.783407],[-58.871019,-27.571271],[-58.881402,-27.497892],[-58.781012,-27.381778],[-58.668787,-27.359092],[-58.616488,-27.318632],[-58.652207,-27.130556],[-58.398665,-26.864892],[-58.443824,-26.83206]]]},"properties":{"id":"22","nombre":"Chaco","nombre_completo":"Provincia del Chaco","fuente":"IGN","categoria":"Provincia","centroide":{"lon":-60.76511626,"lat":-26.386987184},"iso_id":"AR-H","iso_nombre":"Chaco"}},
{"type":"Feature","geometry":{"type":"Polygon","coordinates":[[[-58.398665,-26.864892],[-58.191296,-26.646345],[-58.159009,-26.181187],[-57.854756,-26.008455],[-57.826545,-25.754442],[-57.572647,-25.556052],[-57.560602,-25.452714],[-57.861132,-25.08159],[-58.224653,-24.927106],[-58.333677,-25.000018],[-58.473704,-24.860906],[-59.127806,-24.617952],[-60.039006,-24.011656],[-60.295069,-24.041431],[-60.986809,-23.812867],[-61.12189,-23.584904],[-61.494122,-23.424436],[-61.99712,-23.010175],[-62.342256,-22.460941],[-62.342157,-24.110249],[-61.761514,-24.306725],[-61.453956,-24.612175],[-61.230062,-24.635205],[-60.940093,-25.004408],[-60.354294,-25.322742],[-60.176985,-25.659696],[-59.97971,-25.723011],[-59.671168,-26.003304],[-59.660456,-26.143402],[-59.438301,-26.149132],[-59.357506,-26.33797],[-59.140226,-26.299443],[-58.985715,-26.379999],[-58.443824,-26.83206],[-58.398665,-26.864892]]]},"properties":{"id":"34","nombre":"Formosa","nombre_completo":"Provincia de Formosa","fuente":"IGN","categoria":"Provincia","centroide":{"lon":-59.932190112,"lat":-24.895087176},"iso_id":"AR-P","iso_nombre":"Formosa"}},
{"type":"Feature","geometry":{"type":"Polygon","coordinates":[[[-71.644901,-46],[-71.914554,-46.139819],[-71.726883,-46.2719],[-71.643372,-46.684822],[-71.955377,-46.814422],[-71.864745,-47.230568],[-72.018611,-47.198419],[-71.996445,-47.294954],[-72.341342,-47.456186],[-72.309095,-47.590839],[-72.523647,-47.741872],[-72.527417,-47.937784],[-72.226737,-48.321972],[-72.38069,-48.350128],[-72.441592,-48.514087],[-72.58575,-48.487316],[-72.532232,-48.797557],[-72.794589,-48.968082],[-72.946437,-48.945601],[-73.145431,-49.190152],[-73.045593,-49.273682],[-73.470703,-49.201111],[-73.56543,-50.270691],[-73.172729,-50.676697],[-73.267517,-50.823975],[-72.729745,-50.614952],[-72.286248,-50.659646],[-72.265665,-51.035228],[-72.40906,-51.10749],[-72.259487,-51.254044],[-72.442519,-51.584489],[-71.951015,-51.871624],[-72.006085,-51.97894],[-69.9955,-52.000717],[-68.418628,-52.332478],[-68.432596,-52.39769],[-68.35253,-52.322552],[-68.961329,-51.62389],[-69.617798,-51.626892],[-68.958534,-51.571995],[-69.166128,-50.980888],[-69.464905,-51.11261],[-69.132019,-50.899586],[-69.07931,-50.565332],[-68.880006,-50.335618],[-68.354906,-50.151305],[-68.580688,-49.964417],[-68.9328,-50],[-68.571411,-49.936829],[-68.63739,-49.777588],[-68.34358,-50.120801],[-67.904803,-49.997947],[-67.732251,-49.782696],[-67.612755,-49.250273],[-67.713806,-49.385925],[-67.837524,-49.38678],[-67.551289,-49.014365],[-66.753191,-48.473166],[-66.343003,-48.368804],[-66.121065,-48.123588],[-65.896434,-48.10303],[-65.924173,-47.939689],[-65.764673,-47.949483],[-65.88086,-47.762688],[-66.281982,-47.871399],[-66.00531,-47.730774],[-65.838642,-47.746816],[-65.735735,-47.201786],[-65.940692,-47.072181],[-66.791934,-46.999144],[-67.440279,-46.548541],[-67.613668,-46.23144],[-67.595705,-45.999872],[-71.644901,-46]]]},"properties":{"id":"78","nombre":"Santa Cruz","nombre_completo":"Provincia de Santa Cruz","fuente":"IGN","categoria":"Provincia","centroide":{"lon":-69.955761914,"lat":-48.815547183},"iso_id":"AR-Z","iso_nombre":"Santa Cruz"}},
{"type":"Feature","geometry":{"type":"Polygon","coordinates":[[[-65.069254,-42],[-67.750569,-41.999988],[-71.773935,-42],[-71.781727,-42.14808],[-72.188262,-42.160969],[-72.012605,-42.494855],[-72.178704,-42.689196],[-72.142547,-42.899865],[-71.729205,-43.200251],[-71.734603,-43.314333],[-71.904389,-43.321886],[-71.934232,-43.449101],[-71.87748,-43.551083],[-71.581455,-43.65168],[-71.753419,-43.78818],[-71.648781,-43.945925],[-71.848659,-44.113525],[-71.839018,-44.349976],[-71.815067,-44.416117],[-71.246182,-44.417404],[-71.091463,-44.532549],[-71.291816,-44.813948],[-71.474207,-44.737073],[-72.066935,-44.759604],[-72.037153,-44.90282],[-71.559717,-44.977447],[-71.332978,-45.241385],[-71.529458,-45.392704],[-71.46892,-45.493636],[-71.76353,-45.56031],[-71.76897,-45.844395],[-71.644901,-46],[-67.595705,-45.999872],[-66.964022,-45.272986],[-66.518652,-45.222898],[-66.599702,-45.139409],[-66.473174,-45.165881],[-66.517135,-45.096936],[-66.194612,-44.982201],[-65.68994,-45.06201],[-65.519815,-44.92974],[-65.7287,-44.811581],[-65.63837,-44.665869],[-65.279285,-44.51742],[-65.334459,-44.456],[-65.216735,-44.366741],[-65.311773,-44.204271],[-65.187944,-44.035456],[-65.332906,-43.6575],[-64.97634,-43.254972],[-64.307681,-42.979162],[-65.015345,-42.781703],[-64.979796,-42.649137],[-64.489398,-42.500236],[-64.211141,-42.625411],[-64.253564,-42.765154],[-64.145191,-42.87379],[-63.629964,-42.764628],[-63.603028,-42.315433],[-63.770304,-42.073775],[-64.37875,-42.238345],[-64.089816,-42.253411],[-64.124248,-42.429664],[-64.477253,-42.438302],[-64.61774,-42.39472],[-64.464209,-42.239523],[-64.880279,-42.180798],[-65.069254,-42]]]},"properties":{"id":"26","nombre":"Chubut","nombre_completo":"Provincia del Chubut","fuente":"IGN","categoria":"Provincia","centroide":{"lon":-68.526736334,"lat":-43.788627139},"iso_id":"AR-U","iso_nombre":"Chubut"}},
{"type":"Feature","geometry":{"type":"Polygon","coordinates":[[[-70.126201,-32.574154],[-70.147581,-32.72843],[-69.989382,-32.898958],[-70.09374,-33.050967],[-70.038259,-33.270397],[-70.000908,-33.322875],[-69.916634,-33.244252],[-69.769065,-33.343213],[-69.904673,-33.771287],[-69.796644,-34.209981],[-70.030841,-34.287725],[-70.012299,-34.41195],[-70.306263,-34.747334],[-70.37502,-35.170222],[-70.583686,-35.26716],[-70.431893,-35.318292],[-70.368009,-35.520741],[-70.423798,-35.641065],[-70.311964,-35.813164],[-70.420483,-35.875069],[-70.397378,-36.119489],[-70.394986,-36.194329],[-70.370616,-36.223792],[-70.371688,-36.281498],[-70.338949,-36.336924],[-70.225354,-36.32712],[-70.12257,-36.571048],[-69.759652,-36.87152],[-69.711541,-37.101483],[-69.529573,-37.174436],[-69.268318,-37.144501],[-69.064131,-37.223647],[-69.026041,-37.364793],[-68.766087,-37.366485],[-68.354952,-37.547228],[-68.258036,-37.574501],[-68.250183,-36.172485],[-68.29641,-35.997622],[-66.637848,-36.000593],[-66.619716,-35.971015],[-66.622895,-35.851665],[-66.589446,-35.794422],[-66.477995,-35.14187],[-66.81189,-34.345104],[-66.663207,-33.98628],[-66.675863,-33.941621],[-66.873256,-33.832946],[-67.095979,-33.503497],[-67.152606,-33.412153],[-67.23235,-32.884999],[-67.166335,-32.758716],[-67.310131,-32.424741],[-67.472911,-32.306686],[-67.522397,-32.221168],[-67.838262,-32.215087],[-67.872869,-32.188012],[-68.052905,-32.071038],[-68.073254,-32.098972],[-68.461208,-32.139189],[-68.461209,-32.238052],[-68.665655,-32.337072],[-68.917614,-32.33794],[-68.917615,-32.114646],[-69.183994,-31.999385],[-69.596233,-32.140907],[-69.728874,-32.330831],[-69.689212,-32.430176],[-69.758861,-32.512382],[-69.778761,-32.542409],[-69.827384,-32.56271],[-70.003558,-32.529095],[-70.089601,-32.622434],[-70.126201,-32.574154]]]},"properties":{"id":"50","nombre":"Mendoza","nombre_completo":"Provincia de Mendoza","fuente":"IGN","categoria":"Provincia","centroide":{"lon":-68.582945602,"lat":-34.630388707},"iso_id":"AR-M","iso_nombre":"Mendoza"}},
{"type":"Feature","geometry":{"type":"Polygon","coordinates":[[[-58.496562,-30.207688],[-58.630015,-30.176859],[-59.064251,-30.230818],[-59.229703,-30.364175],[-59.557735,-30.33265],[-59.587769,-30.434822],[-59.63682,-30.357754],[-59.671672,-30.338662],[-59.703439,-30.44261],[-59.678406,-30.646912],[-59.699394,-30.769072],[-59.818176,-30.942505],[-59.963379,-31.119873],[-60.105591,-31.289917],[-60.143494,-31.443604],[-60.46759,-31.698303],[-60.675781,-31.811707],[-60.700382,-32.149769],[-60.776184,-32.507019],[-60.620246,-32.947945],[-60.392055,-33.188984],[-60.297829,-33.242284],[-60.200684,-33.292175],[-59.894744,-33.510284],[-59.80953,-33.551657],[-59.617418,-33.693741],[-59.516737,-33.630834],[-59.467773,-33.704285],[-59.235413,-33.73999],[-59.24231,-33.807495],[-58.992881,-33.841804],[-58.654997,-34.035254],[-58.344989,-34.038397],[-58.494713,-33.586549],[-58.404368,-33.180052],[-58.08418,-33.000123],[-58.204588,-32.462003],[-58.099882,-32.260012],[-58.20681,-31.871645],[-58.012854,-31.686734],[-58.082394,-31.457827],[-57.91314,-31.212921],[-57.843748,-30.721658],[-57.980233,-30.629397],[-58.037025,-30.5679],[-58.20739,-30.288077],[-58.451527,-30.224856],[-58.496562,-30.207688]]]},"properties":{"id":"30","nombre":"Entre Ríos","nombre_completo":"Provincia de Entre Ríos","fuente":"IGN","categoria":"Provincia","centroide":{"lon":-59.201262616,"lat":-32.058927894},"iso_id":"AR-E","iso_nombre":"Entre Ríos"}},
{"type":"Feature","geometry":{"type":"Polygon","coordinates":[[[-69.605713,-28.419006],[-69.788099,-29.132683],[-69.952689,-29.189165],[-70.018923,-29.321335],[-69.878671,-29.725808],[-69.96487,-30.085446],[-69.817018,-30.17966],[-69.955342,-30.385505],[-70.154669,-30.346666],[-70.322821,-30.928026],[-70.269156,-31.043222],[-70.401378,-31.167072],[-70.497907,-31.122797],[-70.569292,-31.474919],[-70.460442,-31.843866],[-70.209316,-31.960411],[-70.388233,-32.045402],[-70.126201,-32.574154],[-70.089601,-32.622434],[-70.003558,-32.529095],[-69.827384,-32.56271],[-69.778761,-32.542409],[-69.758861,-32.512382],[-69.689212,-32.430176],[-69.728874,-32.330831],[-69.596233,-32.140907],[-69.183994,-31.999385],[-68.917615,-32.114646],[-68.917614,-32.33794],[-68.665655,-32.337072],[-68.461209,-32.238052],[-68.461208,-32.139189],[-68.073254,-32.098972],[-68.052905,-32.071038],[-67.872869,-32.188012],[-67.838262,-32.215087],[-67.522397,-32.221168],[-67.472911,-32.306686],[-67.263799,-32.381859],[-67.37039,-32.246281],[-67.365234,-31.975901],[-67.379244,-31.868116],[-67.136729,-31.833805],[-67.00593,-31.855355],[-66.885696,-31.897693],[-66.661788,-31.920536],[-66.73504,-31.87466],[-66.802429,-31.811829],[-66.868184,-31.633298],[-66.951966,-31.633298],[-67.101229,-31.382986],[-67.08207,-30.916096],[-67.494802,-30.536332],[-67.590873,-30.298148],[-68.441284,-29.650513],[-68.884353,-29.592581],[-69.015965,-29.650039],[-68.908706,-28.85932],[-69.161971,-28.761135],[-69.316172,-28.411606],[-69.469602,-28.415027],[-69.555237,-28.405822],[-69.605713,-28.419006]]]},"properties":{"id":"70","nombre":"San Juan","nombre_completo":"Provincia de San Juan","fuente":"IGN","categoria":"Provincia","centroide":{"lon":-68.888159707,"lat":-30.865660702},"iso_id":"AR-J","iso_nombre":"San Juan"}},
{"type":"Feature","geometry":{"type":"Polygon","coordinates":[[[-65.186567,-22.08535],[-65.748264,-22.109145],[-66.242794,-21.793294],[-66.288604,-22.086955],[-66.739278,-22.238458],[-66.782472,-22.438075],[-67.02725,-22.540883],[-67.014083,-22.654814],[-67.1805,-22.814128],[-66.990503,-23.000006],[-67.213047,-23.694917],[-66.837372,-24.070739],[-66.483355,-24.212998],[-66.362287,-24.087357],[-66.376856,-23.750218],[-66.283644,-23.5747],[-66.182925,-23.438445],[-66.184289,-23.414608],[-66.011199,-23.508777],[-65.992573,-23.979955],[-65.746268,-24.062439],[-65.656331,-24.37742],[-65.54042,-24.451516],[-65.194119,-24.45986],[-64.927407,-24.599773],[-64.842698,-24.467085],[-64.647548,-24.613357],[-64.421652,-24.402206],[-64.31834,-24.42716],[-64.288777,-24.407116],[-64.251978,-24.364174],[-64.252395,-24.344425],[-64.223127,-24.329375],[-64.161841,-24.221061],[-64.157057,-23.518042],[-64.354331,-23.517997],[-64.393192,-23.610071],[-64.49587,-23.567137],[-64.682533,-23.452433],[-64.845038,-23.49725],[-64.868444,-23.447421],[-65.038648,-23.226904],[-65.04502,-23.155738],[-65.071695,-23.137652],[-65.133765,-23.001884],[-65.218238,-22.95895],[-65.274232,-22.790107],[-65.271662,-22.64823],[-65.350694,-22.602262],[-65.347124,-22.520101],[-65.305689,-22.466615],[-65.262733,-22.338258],[-65.240295,-22.279248],[-65.186567,-22.08535]]]},"properties":{"id":"38","nombre":"Jujuy","nombre_completo":"Provincia de Jujuy","fuente":"IGN","categoria":"Provincia","centroide":{"lon":-65.764423919,"lat":-23.319975062},"iso_id":"AR-Y","iso_nombre":"Jujuy"}},
{"type":"Feature","geometry":{"type":"Polygon","coordinates":[[[-61.711816,-25.654744],[-63.422412,-25.64922],[-63.47552,-25.70995],[-64.267966,-25.700569],[-64.416683,-26.114299],[-64.481788,-26.307587],[-64.498582,-26.67359],[-64.58702,-26.657929],[-64.617889,-26.802693],[-64.707391,-26.82004],[-64.854259,-27.318301],[-64.974365,-27.350918],[-65.039037,-27.879261],[-65.178132,-27.916417],[-65.112391,-28.186654],[-65.097089,-28.470938],[-65.184617,-28.60057],[-65.170609,-28.618386],[-64.901128,-28.841312],[-64.837596,-29.228569],[-64.785969,-29.405497],[-64.824628,-29.574305],[-64.275482,-29.498674],[-63.980802,-29.551029],[-63.957798,-29.623503],[-63.873856,-29.630787],[-63.841912,-29.580767],[-63.78377,-29.584167],[-63.718995,-29.666217],[-63.465352,-29.664484],[-63.459617,-29.756934],[-62.80634,-29.833773],[-62.791336,-29.960589],[-62.556483,-30.062787],[-62.520077,-30.341898],[-62.173794,-30.345314],[-62.130653,-30.480433],[-61.712045,-27.998552],[-61.711816,-25.654744]]]},"properties":{"id":"86","nombre":"Santiago del Estero","nombre_completo":"Provincia de Santiago del Estero","fuente":"IGN","categoria":"Provincia","centroide":{"lon":-63.252626886,"lat":-27.783431882},"iso_id":"AR-G","iso_nombre":"Santiago del Estero"}},
{"type":"Feature","geometry":{"type":"Polygon","coordinates":[[[-68.152544,-37.580318],[-68.254253,-37.571931],[-68.256278,-38.679548],[-67.998088,-38.995764],[-68.023978,-38.976428],[-68.561736,-39.076485],[-68.999878,-39.515198],[-69.2771,-39.596375],[-69.506997,-39.815423],[-69.931754,-39.943583],[-69.950278,-40.178985],[-70.170569,-40.483009],[-70.54248,-40.503601],[-70.976501,-40.648682],[-71.120791,-40.75822],[-71.032023,-40.933145],[-71.141648,-41.055976],[-71.861077,-41.031024],[-71.911245,-41.356743],[-71.773935,-42],[-65.069254,-42],[-64.987793,-41.518799],[-65.166687,-40.973999],[-65.092712,-40.814575],[-64.899902,-40.760803],[-64.995911,-40.716919],[-64.733582,-40.786926],[-64.875305,-40.828918],[-64.541199,-40.864929],[-63.788574,-41.158997],[-63.116516,-41.155518],[-62.789667,-41.024164],[-62.957589,-40.81811],[-63.379348,-40.710371],[-63.383269,-39.328492],[-64.3974,-38.87323],[-66.538615,-38.720853],[-66.635879,-38.542065],[-67.152992,-38.356795],[-67.187613,-38.214503],[-67.547913,-38.256287],[-67.750652,-38.056127],[-67.850753,-38.065472],[-67.90328,-37.982086],[-67.72079,-37.81059],[-67.770346,-37.670528],[-68.152544,-37.580318]]]},"properties":{"id":"62","nombre":"Río Negro","nombre_completo":"Provincia de Río Negro","fuente":"IGN","categoria":"Provincia","centroide":{"lon":-67.2296758,"lat":-40.405079631},"iso_id":"AR-R","iso_nombre":"Río Negro"}},
{"type":"Feature","geometry":{"type":"MultiPolygon","coordinates":[[[[-56.028888,-27.382855],[-56.086808,-27.30856],[-56.287181,-27.410932],[-56.388842,-27.606019],[-56.60355,-27.431417],[-56.718782,-27.464558],[-56.689199,-27.579028],[-56.845096,-27.6064],[-56.96963,-27.497928],[-57.225409,-27.470378],[-57.326511,-27.409839],[-57.507518,-27.444201],[-57.873551,-27.272966],[-58.616488,-27.318632],[-58.668787,-27.359092],[-58.74556,-27.382238],[-58.768318,-27.376276],[-58.793519,-27.393176],[-58.881938,-27.499654],[-58.871019,-27.571271],[-58.809708,-27.783407],[-58.829262,-27.961873],[-58.857739,-28.011612],[-58.859734,-28.050318],[-58.952965,-28.137106],[-59.062413,-28.128109],[-59.048857,-28.493311],[-59.199715,-29.031545],[-59.604283,-29.394743],[-59.659665,-29.843179],[-59.56639,-30.008076],[-59.693453,-30.313123],[-59.671672,-30.338662],[-59.63682,-30.357754],[-59.587769,-30.434822],[-59.557735,-30.33265],[-59.229703,-30.364175],[-59.064251,-30.230818],[-58.630015,-30.176859],[-58.496562,-30.207688],[-58.451527,-30.224856],[-58.20739,-30.288077],[-58.037025,-30.5679],[-57.980233,-30.629397],[-57.843748,-30.721658],[-57.889609,-30.510684],[-57.64292,-30.341905],[-57.645072,-30.182408],[-56.970521,-29.641533],[-56.591503,-29.12431],[-56.419525,-29.078981],[-56.29437,-28.797709],[-55.882362,-28.477707],[-55.878303,-28.361162],[-55.691695,-28.417605],[-55.669942,-28.330763],[-55.782542,-28.253937],[-55.620237,-28.137544],[-55.716718,-28.061268],[-56.028888,-27.382855]]],[[[-56.914826,-27.42354],[-57.032066,-27.480648],[-56.970105,-27.492732],[-56.840421,-27.596181],[-56.737973,-27.550577],[-56.914826,-27.42354]]]]},"properties":{"id":"18","nombre":"Corrientes","nombre_completo":"Provincia de Corrientes","fuente":"IGN","categoria":"Provincia","centroide":{"lon":-57.80108186,"lat":-28.774204481},"iso_id":"AR-W","iso_nombre":"Corrientes"}},
{"type":"Feature","geometry":{"type":"Polygon","coordinates":[[[-55.716718,-28.061268],[-55.554787,-28.162795],[-55.322599,-27.924421],[-55.029164,-27.853941],[-55.083936,-27.785968],[-54.936241,-27.771868],[-54.812871,-27.532619],[-54.683666,-27.574973],[-54.581656,-27.453407],[-54.530191,-27.506564],[-54.413157,-27.406519],[-54.281567,-27.44719],[-54.173278,-27.254989],[-54.08446,-27.299776],[-53.951805,-27.152829],[-53.798266,-27.145836],[-53.802178,-27.040088],[-53.671196,-26.942485],[-53.759531,-26.64114],[-53.637383,-26.249682],[-53.83607,-25.971906],[-53.890714,-25.622984],[-54.081095,-25.55825],[-54.100406,-25.618192],[-54.102558,-25.494315],[-54.178779,-25.584886],[-54.382441,-25.596332],[-54.428923,-25.694065],[-54.594925,-25.597435],[-54.610735,-25.977787],[-54.679692,-26.003556],[-54.618016,-26.214246],[-54.812421,-26.667842],[-54.942158,-26.68238],[-55.141464,-26.953458],[-55.375741,-26.966166],[-55.455545,-27.106255],[-55.561323,-27.101324],[-55.589636,-27.331687],[-55.732774,-27.443108],[-55.896346,-27.342718],[-56.028888,-27.382855],[-55.716718,-28.061268]]]},"properties":{"id":"54","nombre":"Misiones","nombre_completo":"Provincia de Misiones","fuente":"IGN","categoria":"Provincia","centroide":{"lon":-54.651570563,"lat":-26.875302599},"iso_id":"AR-N","iso_nombre":"Misiones"}},
{"type":"Feature","geometry":{"type":"Polygon","coordinates":[[[-62.342352,-24.392113],[-62.342341,-22.456975],[-62.788852,-22.16495],[-62.811176,-21.998768],[-63.665267,-21.999342],[-63.683776,-22.054768],[-63.931457,-21.999377],[-64.241691,-22.557726],[-64.311583,-22.882083],[-64.617104,-22.205164],[-65.186567,-22.08535],[-65.240295,-22.279248],[-65.262733,-22.338258],[-65.305689,-22.466615],[-65.350249,-22.53991],[-65.349185,-22.604747],[-65.271662,-22.64823],[-65.274232,-22.790107],[-65.218238,-22.95895],[-65.133765,-23.001884],[-65.071695,-23.137652],[-65.04502,-23.155738],[-65.038648,-23.226904],[-64.868444,-23.447421],[-64.845038,-23.49725],[-64.682533,-23.452433],[-64.49587,-23.567137],[-64.393192,-23.610071],[-64.354331,-23.517997],[-64.157057,-23.518042],[-64.161841,-24.221061],[-64.223127,-24.329375],[-64.244978,-24.33622],[-64.273769,-24.393327],[-64.31583,-24.426307],[-64.421652,-24.402206],[-64.647548,-24.613357],[-64.842698,-24.467085],[-64.927407,-24.599773],[-65.194119,-24.45986],[-65.54042,-24.451516],[-65.656331,-24.37742],[-65.746268,-24.062439],[-65.992573,-23.979955],[-66.011199,-23.508777],[-66.184289,-23.414608],[-66.182925,-23.438445],[-66.283644,-23.5747],[-66.376856,-23.750218],[-66.362287,-24.087357],[-66.483355,-24.212998],[-66.837372,-24.070739],[-67.213047,-23.694917],[-67.322617,-24.034158],[-68.259893,-24.402328],[-68.495805,-24.600214],[-68.568755,-24.794125],[-68.344244,-25.11077],[-68.507172,-25.168313],[-67.864601,-25.2384],[-66.558191,-25.300654],[-66.563902,-25.621762],[-66.648577,-25.712032],[-66.801734,-25.698806],[-66.873566,-25.766185],[-66.847566,-25.796268],[-66.757273,-26.050133],[-66.659349,-26.107205],[-66.539877,-26.353162],[-66.382024,-26.416799],[-66.292958,-26.229306],[-66.232867,-26.152134],[-66.194448,-26.130589],[-66.155975,-26.144589],[-66.099757,-26.220486],[-66.071381,-26.238734],[-65.719401,-26.352777],[-65.711451,-26.328698],[-65.72303,-26.312712],[-65.722753,-26.2798],[-65.688515,-26.117262],[-65.424556,-26.109015],[-65.297906,-26.081736],[-65.039509,-26.290334],[-64.732152,-26.241556],[-64.579581,-26.218181],[-64.564152,-26.226925],[-64.416683,-26.114299],[-64.267966,-25.700569],[-63.47552,-25.70995],[-62.342352,-24.392113]]]},"properties":{"id":"66","nombre":"Salta","nombre_completo":"Provincia de Salta","fuente":"IGN","categoria":"Provincia","centroide":{"lon":-64.814158657,"lat":-24.299283896},"iso_id":"AR-A","iso_nombre":"Salta"}},
{"type":"Feature","geometry":{"type":"Polygon","coordinates":[[[-63.873856,-29.630787],[-63.957798,-29.623503],[-63.980802,-29.551029],[-64.275482,-29.498674],[-64.964052,-29.596091],[-64.937932,-29.847511],[-65.15827,-30.047267],[-65.422985,-30.119602],[-65.77146,-31.044159],[-65.769822,-31.888606],[-65.628041,-31.898627],[-65.245829,-32.089015],[-65.212045,-32.326736],[-64.97718,-32.321351],[-64.929844,-32.42325],[-64.919151,-32.483788],[-64.883229,-32.572577],[-64.944619,-32.767336],[-64.963062,-32.863255],[-65.142999,-33.194775],[-65.109226,-33.950569],[-65.106759,-35.01533],[-63.385734,-35.002218],[-63.385083,-34.385761],[-62.883909,-34.38655],[-61.923249,-33.119581],[-61.787668,-33.006202],[-61.795699,-32.773966],[-61.946626,-32.678481],[-61.914512,-32.494664],[-62.19678,-32.11477],[-62.241683,-31.699677],[-62.123495,-31.605408],[-61.842175,-30.744316],[-62.130653,-30.480433],[-62.173794,-30.345314],[-62.520077,-30.341898],[-62.556483,-30.062787],[-62.791336,-29.960589],[-62.80634,-29.833773],[-63.459617,-29.756934],[-63.465352,-29.664484],[-63.718995,-29.666217],[-63.78377,-29.584167],[-63.841912,-29.580767],[-63.873856,-29.630787]]]},"properties":{"id":"14","nombre":"Córdoba","nombre_completo":"Provincia de Córdoba","fuente":"IGN","categoria":"Provincia","centroide":{"lon":-63.801973467,"lat":-32.144799387},"iso_id":"AR-X","iso_nombre":"Córdoba"}},
{"type":"Feature","geometry":{"type":"MultiPolygon","coordinates":[[[[-60.200684,-33.292175],[-60.272714,-33.263863],[-60.45738,-33.58236],[-60.556949,-33.646598],[-60.818249,-33.540293],[-60.934033,-33.654727],[-61.719753,-34.385555],[-63.385083,-34.385761],[-63.379348,-40.710371],[-62.957589,-40.81811],[-62.789667,-41.024164],[-62.312549,-40.871148],[-62.173589,-40.634582],[-62.48826,-40.301303],[-62.33889,-40.186875],[-62.320002,-39.86849],[-62.115243,-39.848793],[-62.0455,-39.447421],[-62.288497,-39.298638],[-62.009206,-39.367495],[-62.316916,-39.266054],[-62.237414,-39.251589],[-62.342234,-39.162954],[-62.397476,-38.795696],[-62.165912,-38.812045],[-62.073409,-38.925111],[-61.809704,-38.99302],[-60.852816,-38.979782],[-59.111367,-38.700436],[-58.329818,-38.482668],[-57.544866,-38.100593],[-57.491559,-37.828237],[-56.666098,-36.880607],[-56.740051,-36.314427],[-57.11519,-36.280149],[-57.382452,-35.966739],[-57.364742,-35.744771],[-57.127938,-35.445758],[-57.223346,-35.272803],[-57.508456,-35.024714],[-58.343101,-34.630238],[-58.374052,-34.657194],[-58.423795,-34.662247],[-58.52888,-34.654627],[-58.50077,-34.54946],[-58.344989,-34.038397],[-58.654997,-34.035254],[-58.992881,-33.841804],[-59.24231,-33.807495],[-59.235413,-33.73999],[-59.467773,-33.704285],[-59.516737,-33.630834],[-59.617418,-33.693741],[-59.80953,-33.551657],[-59.894744,-33.510284],[-60.200684,-33.292175]]],[[[-61.998985,-39.090736],[-62.056797,-39.157665],[-61.86982,-39.244331],[-61.884796,-39.096584],[-61.909294,-39.162647],[-61.998985,-39.090736]]]]},"properties":{"id":"06","nombre":"Buenos Aires","nombre_completo":"Provincia de Buenos Aires","fuente":"IGN","categoria":"Provincia","centroide":{"lon":-60.558477108,"lat":-36.677392076},"iso_id":"AR-B","iso_nombre":"Buenos Aires"}},
{"type":"Feature","geometry":{"type":"Polygon","coordinates":[[[-63.383269,-39.328492],[-63.385734,-35.002218],[-65.106759,-35.01533],[-65.107809,-35.999062],[-68.29641,-35.997622],[-68.250183,-36.172485],[-68.254253,-37.571931],[-68.152544,-37.580318],[-67.770346,-37.670528],[-67.72079,-37.81059],[-67.90328,-37.982086],[-67.850753,-38.065472],[-67.750652,-38.056127],[-67.547913,-38.256287],[-67.187613,-38.214503],[-67.152992,-38.356795],[-66.635879,-38.542065],[-66.538615,-38.720853],[-64.3974,-38.87323],[-63.383269,-39.328492]]]},"properties":{"id":"42","nombre":"La Pampa","nombre_completo":"Provincia de La Pampa","fuente":"IGN","categoria":"Provincia","centroide":{"lon":-65.447643999,"lat":-37.135065221},"iso_id":"AR-L","iso_nombre":"La Pampa"}},
{"type":"Feature","geometry":{"type":"MultiPolygon","coordinates":[[[[-73.554326,-73.121695],[-73.867816,-73.111882],[-74,-73.371255],[-73.554326,-73.121695]]],[[[-73.547653,-70.735822],[-74,-70.551034],[-74,-70.872896],[-73.547653,-70.735822]]],[[[-72.734349,-77.578196],[-74,-77.485808],[-74,-78.098896],[-73.461315,-78.01488],[-72.734349,-77.578196]]],[[[-71.95342,-69.665481],[-72.579469,-69.422988],[-72.967957,-69.484704],[-72.769065,-69.662486],[-71.95342,-69.665481]]],[[[-71.361784,-70.347465],[-71.411312,-70.271035],[-71.821878,-70.294986],[-71.609445,-70.456451],[-71.361784,-70.347465]]],[[[-68.123652,-71.590222],[-68.333732,-70.791144],[-69.181943,-70.053373],[-69.50507,-69.457924],[-69.748956,-69.278062],[-70.114499,-69.272679],[-70.106988,-68.885866],[-70.441682,-68.780901],[-71.595571,-68.85604],[-72.212903,-69.077543],[-71.63351,-69.448869],[-71.592612,-69.765412],[-71.822669,-69.790898],[-71.927168,-69.958055],[-71.06635,-70.249179],[-70.742076,-70.121127],[-69.751315,-70.341622],[-70.149606,-70.31592],[-70.977155,-70.450933],[-71.272249,-70.678899],[-70.820487,-70.827355],[-70.116947,-70.893202],[-69.823901,-70.837758],[-69.794025,-70.90899],[-71.363346,-70.963301],[-71.631689,-71.151986],[-72.386901,-71.049113],[-73.074695,-71.110895],[-72.948202,-71.225446],[-72.20465,-71.327142],[-72.838002,-71.404776],[-73.601031,-71.319414],[-73.323346,-71.545854],[-73.487123,-71.605462],[-74,-71.419569],[-74,-72.163132],[-73.505316,-72.006],[-73.900979,-71.836819],[-72.874814,-71.927612],[-72.702379,-71.734052],[-72.266368,-71.621668],[-71.79473,-71.894299],[-70.706634,-71.872576],[-70.841692,-72.005807],[-72.045683,-72.120172],[-71.975674,-72.185409],[-71.126222,-72.274775],[-70.421268,-72.130447],[-70.164362,-72.263926],[-70.927271,-72.397331],[-72.09582,-72.317056],[-72.146379,-72.380211],[-72.701934,-72.271731],[-73.162255,-72.449286],[-72.757454,-72.601492],[-72.467257,-72.558999],[-72.371194,-72.670929],[-70.925235,-72.658672],[-70.783025,-72.567237],[-70.556353,-72.681244],[-69.782486,-72.616109],[-69.209113,-72.534783],[-68.753264,-72.223017],[-68.427435,-72.230247],[-68.123652,-71.590222]]],[[[-67.657162,-66.689377],[-67.910796,-66.633159],[-68.55047,-66.943258],[-69.198528,-67.542311],[-68.902264,-67.76661],[-68.551601,-67.742895],[-68.42375,-67.559117],[-68.128362,-67.572378],[-67.974304,-67.470143],[-67.942085,-67.401843],[-68.257666,-67.370406],[-67.677708,-67.158119],[-68.021362,-66.941301],[-67.657162,-66.689377]]],[[[-67.233794,-66.840887],[-67.464123,-66.728913],[-67.604248,-66.882621],[-67.233794,-66.840887]]],[[[-67.182233,-78.493912],[-67.987766,-78.475513],[-71.179994,-79.048101],[-71.817728,-79.439819],[-71.352882,-79.654266],[-70.260526,-79.668515],[-67.182233,-78.493912]]],[[[-67.12832,-67.61638],[-67.623839,-67.614469],[-67.741775,-67.741904],[-67.441375,-67.787591],[-67.12832,-67.61638]]],[[[-67.114101,-67.854756],[-67.343558,-67.820834],[-67.273719,-67.896828],[-67.114101,-67.854756]]],[[[-66.830017,-67.515314],[-67.214995,-67.562687],[-66.969339,-67.592406],[-66.830017,-67.515314]]],[[[-66.591674,-66.109035],[-66.797573,-66.117801],[-66.885862,-66.331187],[-66.591674,-66.109035]]],[[[-65.634442,-65.535366],[-65.964477,-65.549938],[-66.138591,-65.886236],[-65.795545,-65.840617],[-65.914753,-65.697112],[-65.660637,-65.675525],[-65.634442,-65.535366]]],[[[-65.12266,-54.654375],[-65.802782,-54.651905],[-66.464997,-54.47873],[-66.733964,-54.260344],[-67.535202,-53.927108],[-67.545671,-53.840449],[-67.775331,-53.835734],[-67.681737,-53.797174],[-68.13707,-53.331338],[-68.548443,-53.247521],[-68.359546,-53.017893],[-68.201502,-53.141958],[-68.606725,-52.659008],[-68.609416,-54.893957],[-68.248533,-54.795028],[-67.278447,-54.869992],[-66.450251,-55.057508],[-65.97136,-54.968373],[-65.982389,-54.9026],[-65.382137,-54.941071],[-65.12266,-54.654375]]],[[[-64.570896,-67.610517],[-65.007822,-67.617066],[-64.94256,-67.690602],[-64.570896,-67.610517]]],[[[-63.796126,-54.725903],[-64.044185,-54.778132],[-64.34109,-54.714486],[-64.370889,-54.81143],[-64.544637,-54.725246],[-64.51142,-54.798058],[-64.756568,-54.836491],[-64.606146,-54.910849],[-63.796126,-54.725903]]],[[[-63.177658,-64.762382],[-63.453824,-64.78889],[-63.596751,-64.90952],[-63.177658,-64.762382]]],[[[-62.878271,-64.580757],[-62.905104,-64.51033],[-63.284296,-64.581205],[-63.091102,-64.454084],[-63.247628,-64.475211],[-63.172272,-64.387125],[-63.366605,-64.4405],[-63.152942,-64.30966],[-63.361904,-64.242615],[-63.577972,-64.268014],[-63.655921,-64.419699],[-63.940557,-64.458085],[-63.859183,-64.508232],[-64.305211,-64.703864],[-63.698846,-64.856209],[-63.564705,-64.735339],[-63.346713,-64.768535],[-62.878271,-64.580757]]],[[[-62.029443,-64.150861],[-62.296988,-64.01802],[-62.57747,-64.041981],[-62.464166,-64.233217],[-62.769833,-64.500998],[-62.327912,-64.442021],[-62.049499,-64.214576],[-62.213452,-64.177879],[-62.029443,-64.150861]]],[[[-61.957003,-63.336912],[-62.210282,-63.22944],[-62.259533,-63.363257],[-61.957003,-63.336912]]],[[[-61.793341,-69.516447],[-62.041078,-69.255174],[-62.509453,-69.151928],[-62.116106,-69.729092],[-61.793341,-69.516447]]],[[[-61.210515,-51.692181],[-61.3331,-51.692623],[-61.295705,-51.764318],[-61.210515,-51.692181]]],[[[-61.155178,-69.905777],[-61.282831,-69.847249],[-61.402292,-69.906245],[-61.22376,-69.996772],[-61.155178,-69.905777]]],[[[-60.857207,-51.787952],[-61.051832,-51.890236],[-60.974837,-51.779191],[-61.166052,-51.830786],[-60.994987,-51.989353],[-60.857207,-51.787952]]],[[[-60.67393,-68.753197],[-61.03644,-68.70754],[-60.769733,-68.803844],[-60.67393,-68.753197]]],[[[-60.5699,-63.692324],[-60.816757,-63.676281],[-60.679317,-63.728282],[-60.899816,-63.904188],[-60.630346,-63.860629],[-60.5699,-63.692324]]],[[[-60.518819,-70.961284],[-60.723236,-70.907437],[-60.959061,-70.977403],[-60.603628,-71.07026],[-60.518819,-70.961284]]],[[[-60.507342,-62.938153],[-60.654638,-62.892913],[-60.725721,-62.994995],[-60.507342,-62.938153]]],[[[-60.431148,-70.568893],[-60.950832,-70.540321],[-60.894071,-70.703274],[-60.530255,-70.671775],[-60.431148,-70.568893]]],[[[-60.044788,-51.33801],[-60.326026,-51.263502],[-60.121113,-51.36221],[-60.234695,-51.337614],[-60.265241,-51.413047],[-60.044788,-51.33801]]],[[[-59.80539,-62.610732],[-59.994732,-62.631481],[-60.138087,-62.451662],[-60.329604,-62.565428],[-60.60054,-62.576638],[-60.788299,-62.4538],[-60.82988,-62.583794],[-61.216404,-62.586437],[-61.182181,-62.672413],[-60.858198,-62.69127],[-60.351699,-62.612165],[-60.312261,-62.764197],[-59.80539,-62.610732]]],[[[-59.734297,-80.220616],[-59.88444,-79.837244],[-60.525778,-79.741751],[-61.221456,-79.875642],[-61.215974,-80.268663],[-62.098288,-80.404672],[-63.436981,-80.467639],[-65.732862,-80.398151],[-66.198842,-80.19843],[-66.824864,-80.327468],[-65.093295,-80.681047],[-64.318617,-80.734265],[-63.818519,-80.608911],[-63.128663,-80.604863],[-62.559224,-80.852242],[-60.827206,-80.959169],[-60.044302,-80.770376],[-59.734297,-80.220616]]],[[[-59.672623,-52.220395],[-59.779413,-52.139644],[-59.74713,-52.296047],[-59.672623,-52.220395]]],[[[-59.565482,-62.493823],[-60.032906,-62.453129],[-59.716233,-62.555815],[-59.565482,-62.493823]]],[[[-59.441441,-65.226437],[-59.811539,-65.093676],[-59.776051,-65.185433],[-59.441441,-65.226437]]],[[[-59.358983,-62.390312],[-59.724993,-62.369408],[-59.500877,-62.463525],[-59.358983,-62.390312]]],[[[-59.190066,-51.398873],[-59.414826,-51.337763],[-59.384665,-51.439448],[-59.520423,-51.480812],[-59.606802,-51.444996],[-59.490199,-51.395637],[-59.618947,-51.43476],[-59.626638,-51.468594],[-60.008926,-51.380573],[-60.100046,-51.438216],[-59.972423,-51.475558],[-60.130952,-51.50724],[-60.664343,-51.340204],[-60.382473,-51.48655],[-60.495032,-51.540073],[-60.332925,-51.581057],[-60.32811,-51.525332],[-59.97415,-51.741896],[-60.231229,-51.656642],[-60.650209,-51.667247],[-60.539656,-51.807483],[-60.318055,-51.696461],[-60.181672,-51.745857],[-60.32384,-51.76079],[-60.368554,-51.890418],[-60.374629,-51.764951],[-60.460312,-51.787867],[-60.50575,-51.936052],[-60.648351,-51.926272],[-60.542803,-51.95426],[-60.397136,-51.92587],[-60.570335,-51.984327],[-60.507356,-52.024182],[-60.649279,-51.968831],[-60.683451,-52.046973],[-60.846043,-51.954031],[-60.804971,-52.058204],[-61.024085,-52.007606],[-61.047626,-52.072975],[-60.799476,-52.18943],[-60.850517,-52.107622],[-60.715875,-52.103109],[-60.652747,-52.259071],[-60.503106,-52.202723],[-60.543409,-52.112474],[-60.378032,-52.177456],[-60.504394,-52.112874],[-60.327888,-52.101377],[-60.354958,-52.162119],[-60.266931,-52.090855],[-60.242347,-52.018593],[-60.282508,-52.082008],[-60.2845,-52.017622],[-60.357624,-52.007369],[-60.330528,-51.979405],[-59.858806,-51.963556],[-59.338562,-51.528512],[-59.496646,-51.520211],[-59.335076,-51.525115],[-59.190066,-51.398873]]],[[[-58.863174,-62.314483],[-59.000943,-62.233448],[-59.244441,-62.302978],[-58.863174,-62.314483]]],[[[-58.465261,-51.309986],[-58.73013,-51.348279],[-58.971765,-51.233636],[-58.868145,-51.378622],[-59.144549,-51.461494],[-58.843458,-51.515592],[-59.045273,-51.504978],[-59.01434,-51.605897],[-59.128328,-51.496216],[-59.178857,-51.584403],[-58.949416,-51.77394],[-59.049414,-51.826985],[-59.054031,-51.691672],[-59.214579,-51.717344],[-59.378583,-51.859309],[-59.497469,-51.83573],[-59.470101,-51.928372],[-59.610339,-51.918097],[-59.518355,-51.962279],[-59.648252,-51.965131],[-59.545638,-52.005155],[-59.653936,-52.005823],[-59.611748,-52.123713],[-59.731552,-52.097132],[-59.497711,-52.311887],[-59.309448,-52.350942],[-59.414656,-52.283985],[-59.329997,-52.211269],[-59.433998,-52.243864],[-59.491002,-52.166267],[-59.367847,-52.110967],[-59.011366,-52.255613],[-59.023831,-52.144079],[-59.180081,-52.145132],[-59.067982,-52.102953],[-59.177805,-52.102692],[-59.138939,-52.034706],[-59.318911,-52.013056],[-59.189541,-51.972252],[-58.92821,-52.117357],[-58.897036,-52.034384],[-58.736223,-52.050115],[-58.659631,-52.141476],[-58.626246,-51.965543],[-58.767355,-51.987527],[-59.115608,-51.835935],[-58.985919,-51.857],[-58.950189,-51.787287],[-58.560687,-51.90737],[-58.565934,-51.829579],[-58.400807,-51.922579],[-58.164522,-51.816001],[-58.38722,-51.824381],[-58.109111,-51.788885],[-58.297478,-51.7474],[-57.716876,-51.683079],[-57.920385,-51.686936],[-57.723844,-51.64467],[-58.164958,-51.547026],[-57.764105,-51.540428],[-57.944432,-51.360876],[-58.282315,-51.390889],[-58.377955,-51.512715],[-58.145536,-51.611873],[-58.251447,-51.584302],[-58.172922,-51.644463],[-58.278536,-51.661572],[-58.424594,-51.468439],[-58.626413,-51.467387],[-58.504512,-51.380789],[-58.45545,-51.455653],[-58.320544,-51.432868],[-58.465261,-51.309986]]],[[[-58.406434,-52.004289],[-58.554204,-52.027058],[-58.429283,-52.102768],[-58.406434,-52.004289]]],[[[-57.576978,-62.021859],[-57.689479,-61.889341],[-58.42482,-61.934318],[-59.028457,-62.218971],[-58.829952,-62.158077],[-58.615511,-62.261885],[-58.418573,-62.212638],[-58.636406,-62.176118],[-58.437795,-62.056806],[-58.26572,-62.190756],[-58.133507,-62.054272],[-57.576978,-62.021859]]],[[[-57.061853,-63.834625],[-57.701919,-63.819098],[-57.342702,-63.933881],[-57.061853,-63.834625]]],[[[-57.065007,-64.159478],[-57.511323,-64.021612],[-57.453847,-63.914585],[-57.864682,-64.075818],[-57.775954,-63.776338],[-58.296676,-63.910564],[-58.174441,-63.983501],[-58.4573,-64.09097],[-58.09671,-64.127682],[-58.310598,-64.326354],[-58.028739,-64.35529],[-57.98087,-64.450746],[-57.79399,-64.34953],[-57.313026,-64.382102],[-57.402392,-64.285427],[-57.065007,-64.159478]]],[[[-56.905808,-64.32902],[-57.443932,-64.44278],[-57.433299,-64.552696],[-57.011493,-64.485201],[-56.905808,-64.32902]]],[[[-56.764608,-63.547177],[-57.006356,-63.473797],[-57.048822,-63.259996],[-57.407166,-63.226886],[-58.042947,-63.422808],[-58.158478,-63.379208],[-58.15677,-63.473442],[-58.972956,-63.550466],[-58.935293,-63.67408],[-59.415471,-63.726573],[-59.427507,-63.91176],[-59.784279,-63.862813],[-59.847814,-63.773867],[-59.959201,-63.956616],[-60.306691,-63.912387],[-60.761308,-64.089326],[-60.991817,-64.044197],[-60.833931,-64.150963],[-60.938877,-64.302459],[-61.108735,-64.306745],[-61.100495,-64.39522],[-61.346996,-64.432209],[-61.378083,-64.353836],[-61.597367,-64.430394],[-61.43916,-64.494252],[-61.616975,-64.534932],[-61.598517,-64.668446],[-61.79009,-64.489235],[-62.201749,-64.772522],[-62.507562,-64.599693],[-62.704801,-64.769777],[-62.365911,-64.863283],[-62.590225,-64.918301],[-62.820388,-64.804636],[-62.85135,-64.920446],[-63.262554,-64.95368],[-62.994283,-65.02336],[-63.095341,-65.169258],[-63.262954,-65.197082],[-63.239669,-65.085215],[-63.821752,-65.027313],[-64.071048,-65.15212],[-64.10017,-65.409004],[-63.694473,-65.50194],[-63.788,-65.599699],[-64.122264,-65.511764],[-64.064292,-65.695402],[-64.478277,-65.629618],[-64.350295,-65.798732],[-64.686555,-65.769185],[-64.447703,-65.959462],[-64.569762,-66.036302],[-65.085723,-65.933771],[-65.33922,-65.984041],[-65.146183,-66.186509],[-65.608442,-66.097665],[-65.729988,-66.144345],[-65.878613,-66.32059],[-65.550544,-66.400949],[-65.714191,-66.73604],[-66.130534,-66.586824],[-66.57219,-66.669747],[-66.45368,-67.333986],[-66.706287,-67.188598],[-66.79891,-67.306613],[-66.991638,-67.280788],[-66.961859,-66.927204],[-67.127613,-67.019115],[-67.22131,-66.962534],[-67.312695,-67.109748],[-67.509733,-67.04905],[-67.633997,-67.554883],[-66.490135,-67.488639],[-66.972761,-67.68641],[-66.733816,-67.728224],[-67.099395,-67.773764],[-66.761456,-67.776246],[-66.838141,-67.913347],[-67.293288,-67.95981],[-66.953397,-68.221987],[-66.62092,-68.236899],[-66.780939,-68.316174],[-67.180231,-68.279991],[-66.941774,-68.349429],[-67.201722,-68.50831],[-66.963732,-68.756525],[-67.48981,-68.831269],[-66.762207,-69.061358],[-66.968358,-69.115461],[-66.896051,-69.222249],[-67.275131,-69.300278],[-67.316927,-69.519644],[-68.271479,-69.279165],[-68.30747,-69.403784],[-68.839769,-69.42502],[-68.332177,-69.695455],[-68.489135,-70.049111],[-67.958155,-70.304224],[-67.387969,-71.007928],[-67.624535,-71.5317],[-66.85143,-71.898917],[-66.75144,-72.132847],[-67.644636,-72.873221],[-70.277437,-73.281294],[-71.330113,-73.280318],[-71.456887,-73.360324],[-72.459341,-73.377721],[-72.352059,-73.456964],[-72.619319,-73.471025],[-73.100844,-73.420564],[-74,-73.642575],[-74,-76.691346],[-70.469477,-76.743181],[-69.813229,-76.622169],[-70.134521,-76.604168],[-69.768657,-76.461609],[-70.130308,-76.412194],[-67.945144,-76.230114],[-68.15542,-76.175041],[-67.835058,-76.122825],[-66.265688,-76.01332],[-63.589228,-75.528378],[-63.078194,-75.362392],[-64.316489,-75.374348],[-64.428488,-75.296987],[-63.035434,-75.142046],[-63.311823,-75.00994],[-64.043734,-75.033034],[-64.038871,-74.97679],[-63.531642,-74.86377],[-63.052778,-74.901555],[-63.127389,-74.655909],[-62.594799,-74.793417],[-62.563388,-74.974652],[-62.073142,-74.938876],[-61.806793,-74.738459],[-62.354268,-74.404375],[-61.339674,-74.549186],[-60.622716,-74.264439],[-61.644621,-74.291229],[-61.034364,-74.086437],[-61.851664,-74.042659],[-61.592905,-73.974058],[-61.832397,-73.918948],[-61.414613,-73.870055],[-60.982761,-73.959925],[-60.729646,-73.696101],[-61.105425,-73.736664],[-60.760422,-73.590478],[-61.549237,-73.456087],[-61.693629,-73.534106],[-61.944531,-73.380064],[-61.522747,-73.388967],[-61.840713,-73.248626],[-61.603026,-73.282866],[-62.040876,-73.110444],[-61.277164,-73.202131],[-61.055034,-73.350957],[-60.86906,-73.253921],[-60.832007,-73.391006],[-60.59052,-73.191575],[-60.365843,-73.327524],[-59.977386,-73.24065],[-59.943999,-72.897],[-60.310427,-73.056199],[-60.534831,-72.98094],[-60.779312,-73.06829],[-60.526435,-72.657783],[-61.02156,-72.693932],[-61.125883,-72.788895],[-61.48122,-72.501758],[-61.476829,-72.408852],[-60.640362,-72.430813],[-61.002215,-72.360464],[-60.650835,-72.330569],[-60.693623,-72.229647],[-61.09281,-72.186027],[-60.674619,-72.114704],[-60.675574,-71.995724],[-61.160368,-72.058965],[-61.156639,-72.166283],[-61.707882,-72.041704],[-62.254509,-72.129975],[-62.09901,-72.015026],[-62.494833,-71.929075],[-61.088963,-71.870813],[-61.131406,-71.728011],[-60.766091,-71.755966],[-61.157869,-71.532408],[-61.587727,-71.690786],[-62.128323,-71.65513],[-61.132603,-71.416503],[-61.392861,-71.317577],[-60.928019,-71.332158],[-61.282988,-71.229132],[-60.916625,-71.214938],[-61.374673,-71.018419],[-61.290031,-70.85883],[-61.983509,-70.929627],[-62.148297,-70.776024],[-61.643159,-70.687267],[-61.397853,-70.513367],[-62.23257,-70.558181],[-62.134712,-70.429112],[-62.436167,-70.399909],[-62.405316,-70.227019],[-62.057097,-70.304339],[-61.862439,-70.215217],[-62.561104,-69.84638],[-62.40559,-69.506491],[-62.770575,-69.346091],[-63.019759,-69.358797],[-63.184917,-69.156078],[-63.440738,-69.166486],[-63.32307,-69.049302],[-63.924222,-68.972482],[-63.385902,-68.941646],[-63.526696,-68.808157],[-63.197228,-68.853574],[-63.856618,-68.697777],[-63.761713,-68.579532],[-63.290335,-68.454392],[-62.924949,-68.511227],[-62.848652,-68.435801],[-63.427519,-68.413736],[-64.262884,-68.574263],[-64.03666,-68.83542],[-64.405811,-68.729424],[-64.510405,-68.781161],[-64.681091,-68.663687],[-65.272109,-68.630167],[-65.352328,-68.558791],[-64.976959,-68.403317],[-65.509871,-68.321574],[-64.753834,-68.113373],[-64.983207,-68.092688],[-64.935777,-68.02368],[-65.264736,-68.176431],[-65.76129,-68.163015],[-65.311748,-67.989707],[-65.697367,-67.876899],[-65.321476,-67.66556],[-65.633464,-67.497905],[-65.44737,-67.298953],[-65.304282,-67.398642],[-64.754787,-67.320931],[-65.028709,-67.220504],[-64.724979,-67.098987],[-64.979211,-67.033403],[-64.684977,-66.987953],[-64.747849,-66.841337],[-64.54179,-66.756429],[-64.509289,-66.89972],[-64.309167,-66.836089],[-64.101398,-66.937354],[-63.735,-66.899298],[-63.772941,-66.770277],[-64.145345,-66.64471],[-64.018567,-66.562104],[-63.795183,-66.599404],[-63.868147,-66.384615],[-63.554915,-66.394655],[-63.798406,-66.191272],[-63.198721,-66.272631],[-62.626812,-66.743316],[-62.426871,-66.654011],[-62.722908,-66.58005],[-62.515197,-66.474412],[-62.717555,-66.245505],[-61.965838,-66.209523],[-61.760337,-66.476054],[-61.739707,-66.232392],[-61.492137,-66.262024],[-61.494257,-66.165583],[-61.301236,-66.150853],[-60.98036,-66.348019],[-60.879176,-66.189803],[-61.045951,-66.089096],[-60.915351,-66.037692],[-60.703341,-66.134211],[-60.575759,-65.939901],[-61.017968,-65.910925],[-61.07133,-66.048184],[-61.341652,-65.918925],[-61.317117,-66.089524],[-61.62047,-66.014712],[-61.918143,-66.131884],[-62.397864,-65.903446],[-62.084412,-65.600936],[-61.711214,-65.558535],[-62.219872,-65.454316],[-61.996865,-65.385951],[-62.317322,-65.333528],[-61.967719,-65.185711],[-61.602151,-65.239681],[-61.693536,-64.997842],[-61.054961,-65.030271],[-59.97808,-64.390578],[-59.754797,-64.431301],[-59.780161,-64.579222],[-59.54893,-64.581955],[-59.649646,-64.403816],[-59.480678,-64.308616],[-59.373174,-64.431149],[-59.002899,-64.426396],[-58.81534,-64.558986],[-58.931824,-64.371318],[-58.756748,-64.287172],[-59.150655,-64.232285],[-58.803971,-64.216934],[-58.705734,-63.993325],[-58.276446,-63.728724],[-57.609114,-63.635362],[-57.723772,-63.558075],[-57.37445,-63.556627],[-57.439755,-63.446962],[-57.140554,-63.484257],[-57.13347,-63.655911],[-56.819606,-63.645833],[-56.764608,-63.547177]]],[[[-56.031235,-63.026062],[-56.491692,-62.974597],[-56.627338,-63.042877],[-56.309411,-63.188625],[-56.031235,-63.026062]]],[[[-55.729399,-63.444802],[-56.000472,-63.392358],[-56.258919,-63.482608],[-55.970866,-63.59036],[-55.729399,-63.444802]]],[[[-55.061076,-63.330349],[-55.157148,-63.185205],[-55.869618,-63.12471],[-56.352516,-63.222427],[-56.558628,-63.364565],[-56.368989,-63.443086],[-55.899338,-63.294031],[-55.061076,-63.330349]]],[[[-54.683388,-61.123967],[-55.366112,-61.054345],[-55.482623,-61.106502],[-55.217386,-61.280944],[-55.039888,-61.161671],[-54.683388,-61.123967]]],[[[-53.981747,-61.147826],[-54.191958,-61.275244],[-54.042658,-61.297731],[-53.981747,-61.147826]]],[[[-45.152828,-60.681746],[-45.692908,-60.514367],[-46.03269,-60.612676],[-45.780481,-60.58778],[-45.190396,-60.733943],[-45.152828,-60.681746]]],[[[-44.394153,-60.72464],[-44.520387,-60.667008],[-44.813301,-60.720748],[-44.702077,-60.783898],[-44.394153,-60.72464]]],[[[-42.994428,-79.439624],[-43.748429,-78.79673],[-45.382894,-78.776975],[-44.987876,-78.627568],[-43.912413,-78.591155],[-44.033457,-78.178087],[-45.6635,-77.842449],[-47.618904,-77.796162],[-49.102845,-78.049311],[-49.667936,-78.283067],[-50.220687,-78.641274],[-50.301988,-79.566018],[-52.182852,-80.137162],[-53.486726,-80.220632],[-54.276959,-80.84471],[-50.991812,-80.859705],[-49.800905,-80.786809],[-49.372646,-80.629271],[-47.989827,-80.651691],[-45.483885,-80.475893],[-43.479581,-80.148132],[-43.832139,-79.981398],[-43.136115,-79.95077],[-42.994428,-79.439624]]],[[[-35.791549,-54.765771],[-35.971135,-54.704614],[-35.893628,-54.545284],[-36.091125,-54.575039],[-36.008805,-54.504741],[-36.264174,-54.390995],[-36.250923,-54.287226],[-36.400153,-54.244003],[-36.348034,-54.374258],[-36.521878,-54.355811],[-36.488135,-54.238871],[-36.698129,-54.301712],[-36.486571,-54.197345],[-36.705223,-54.186691],[-36.642667,-54.120571],[-37.049308,-54.136261],[-36.989217,-54.055622],[-37.151845,-54.13401],[-37.134713,-54.04241],[-37.500358,-54.06206],[-37.412127,-53.985465],[-38.021158,-54.016589],[-38.012783,-54.072506],[-37.613223,-54.04419],[-37.733243,-54.109959],[-37.629546,-54.191336],[-37.231415,-54.149315],[-37.415823,-54.186958],[-37.306273,-54.230312],[-37.420844,-54.276592],[-37.220938,-54.238975],[-36.853581,-54.354924],[-36.817946,-54.458414],[-36.499879,-54.507995],[-36.10721,-54.900353],[-35.93745,-54.857306],[-36.119428,-54.751614],[-35.976574,-54.813812],[-35.791549,-54.765771]]],[[[-26.252107,-58.494774],[-26.275384,-58.418378],[-26.466228,-58.414437],[-26.252107,-58.494774]]],[[[-25.039557,-75.857448],[-25.930256,-75.925404],[-26.709333,-76.150328],[-28.860082,-76.350755],[-30.154137,-76.627459],[-30.490451,-76.809333],[-31.720617,-76.980858],[-31.924485,-77.153844],[-32.625225,-77.127527],[-33.718477,-77.310169],[-34.730157,-77.628426],[-34.478402,-77.850007],[-35.352856,-77.853973],[-36.518918,-78.605832],[-36.270467,-78.84527],[-34.648374,-79.017589],[-33.72257,-79.221561],[-32.642635,-79.257173],[-30.265069,-79.043189],[-29.945632,-79.126941],[-30.577895,-79.282097],[-29.542989,-79.278008],[-30.746879,-79.578118],[-32.149336,-79.664214],[-31.75735,-79.736494],[-31.980563,-79.848307],[-30.163138,-80.045955],[-27.365169,-79.968342],[-26.202288,-80.015081],[-26.019609,-80.094835],[-29.742368,-80.154249],[-29.746357,-80.259],[-31.233922,-80.292767],[-30.642849,-80.480885],[-31.953444,-80.425496],[-32.888118,-80.534423],[-33.480694,-80.4996],[-33.167038,-80.553468],[-34.000558,-80.649098],[-35.211025,-80.598776],[-35.183868,-80.72219],[-37.28768,-81.084912],[-38.804489,-80.86395],[-41.553525,-81.334475],[-44.057814,-82.400037],[-44.781051,-82.392514],[-45.641496,-82.522778],[-45.809765,-82.453896],[-46.191165,-82.547711],[-46.683915,-82.404689],[-45.985403,-82.133739],[-46.23865,-81.915921],[-47.292898,-82.071421],[-47.544897,-81.93037],[-48.375162,-81.89804],[-50.755837,-81.962442],[-52.701179,-82.162299],[-54.236525,-82.183953],[-55.155385,-82.517715],[-55.900441,-82.471603],[-59.593772,-83.467711],[-61.867191,-83.372497],[-61.047893,-82.915738],[-61.593344,-83.039956],[-62.2343,-83.029521],[-62.817224,-82.52367],[-60.415283,-82.176939],[-62.135404,-82.297014],[-63.070452,-82.252517],[-64.403976,-82.419151],[-64.496667,-82.358869],[-65.105522,-82.405527],[-65.221095,-82.27234],[-66.099434,-82.300559],[-65.634803,-81.990549],[-66.257431,-81.949154],[-65.668446,-81.871859],[-64.583557,-81.920672],[-63.519585,-81.850277],[-63.524762,-81.775861],[-65.184578,-81.777054],[-64.762395,-81.636092],[-64.704808,-81.697885],[-63.888056,-81.609145],[-64.016594,-81.701333],[-63.359761,-81.638206],[-63.34292,-81.704491],[-62.405809,-81.71498],[-62.302047,-81.563719],[-65.244444,-81.52905],[-68.672948,-81.019894],[-69.991437,-80.977882],[-70.792444,-80.615766],[-72.438974,-80.742364],[-72.599507,-80.963417],[-74,-80.828779],[-74,-90],[-25,-90],[-25.039557,-75.857448]]]]},"properties":{"id":"94","nombre":"Tierra del Fuego, Antártida e Islas del Atlántico Sur","nombre_completo":"Provincia de Tierra del Fuego, Antártida e Islas del Atlántico Sur","fuente":"IGN","categoria":"Provincia","centroide":{"lon":-50.742860676,"lat":-82.521134521},"iso_id":"AR-V","iso_nombre":"Tierra del Fuego"}}
]}